Store Name,Store Number,Phone Number,Address,Url,Longitude,Latitude,City,State
Huntsville,,(256) 801-3741,"2501 Memorial Pkwy SW Huntsville, AL 35801",https://www.wholefoodsmarket.com/stores/huntsville,-86.5899110,34.71215649,huntsville,AL
Mountain Brook,,(205) 912-8400,"3100 Cahaba Village Plaza Birmingham, AL 35243",https://www.wholefoodsmarket.com/stores/birmingham,"-86.752324""","33.460088"",",birmingham,AL
Fayetteville,,(479) 695-5561,"3425 N College Ave Fayetteville, AR 72703",https://www.wholefoodsmarket.com/stores/fayetteville,"-94.1462""
 ","36.1136"",
 ",fayetteville,AR
Bowman,,(501) 312-2326,"501 S Bowman Rd Little Rock, AR 72211",https://www.wholefoodsmarket.com/stores/bowman,"-92.405594""","34.750282"",",bowman,AR
Flagstaff,,(928) 774-5747,"320 S Cambridge Ln Flagstaff, AZ 86001",https://www.wholefoodsmarket.com/stores/flagstaff,-111.641167,"35.191661"",",flagstaff,AZ
Sedona,,(928) 282-6311,"1420 W State Rte 89A Sedona, AZ 86336",https://www.wholefoodsmarket.com/stores/sedona,-111.784974,"34.863536"",",sedona,AZ
Scottsdale,,(480) 515-3777,"7111 E Mayo Blvd Phoenix, AZ 85054",https://www.wholefoodsmarket.com/stores/scottsdale,-111.927193,"33.653791"",",scottsdale,AZ
Paradise Valley,,(602) 569-7600,"10810 N Tatum Blvd Phoenix, AZ 85028",https://www.wholefoodsmarket.com/stores/paradisevalley,-111.979056,"33.585046"",",paradisevalley,AZ
Camelback,,(602) 761-4750,"4701 N 20th St Phoenix, AZ 85016",https://www.wholefoodsmarket.com/stores/camelback,-112.037908,"33.506471"",",camelback,AZ
Tempe,,(480) 456-1400,"750 S Ash Ave Tempe, AZ 85281",https://www.wholefoodsmarket.com/stores/tempe,"-111.943""
 ","33.4224"",
 ",tempe,AZ
Chandler,,(480) 821-9447,"2955 W Ray Rd Chandler, AZ 85224",https://www.wholefoodsmarket.com/stores/chandler,-111.892871,33.31855144,chandler,AZ
Oracle,,(520) 352-0111,"7133 N Oracle Rd Tucson, AZ 85704",https://www.wholefoodsmarket.com/stores/oracle,-110.978349,"32.336556"",",oracle,AZ
Speedway,,(520) 795-9844,"3360 E Speedway Blvd Tucson, AZ 85716",https://www.wholefoodsmarket.com/stores/speedway,-110.921476,"32.235584"",",speedway,AZ
River Road,,(520) 461-1300,"5555 E River Rd Tucson, AZ 85750",https://www.wholefoodsmarket.com/stores/riverroad,-110.874378,32.27492859,riverroad,AZ
Folsom,,(916) 984-8500,"270 Palladio Pkwy Folsom, CA 95630",https://www.wholefoodsmarket.com/stores/folsom,-121.118000,38.64869286,folsom,CA
Roseville,,(916) 781-5300,"1001 Galleria Blvd Roseville, CA 95678",https://www.wholefoodsmarket.com/stores/roseville,-121.267261,38.76733887,roseville,CA
Sacramento,,(916) 488-2800,"4315 Arden Way Sacramento, CA 95864",https://www.wholefoodsmarket.com/stores/sacramento,-121.363794,"38.596639"",",sacramento,CA
Napa,,(707) 224-6300,"3682 Bel Aire Plaza Napa, CA 94558",https://www.wholefoodsmarket.com/stores/napa,"-122.30663""","38.323501"",",napa,CA
Concord,,(925) 695-3180,"2085 Diamond Blvd Concord, CA 94520",https://www.wholefoodsmarket.com/stores/concord,-122.058839,"37.974136"",",concord,CA
South Lake Tahoe,,(530) 578-4555,"3600 Lake Tahoe Blvd. South Lake Tahoe, CA 96150",https://www.wholefoodsmarket.com/stores/southlaketahoe,-119.959176,"38.9472"",
 ",southlaketahoe,CA
Ygnacio Valley Road,,(925) 269-9010,"2941 Ygnacio Valley Rd Walnut Creek, CA 94598",https://www.wholefoodsmarket.com/stores/ygnaciovalleyroad,-122.015352,"37.925907"",",ygnaciovalleyroad,CA
Walnut Creek,,(925) 274-9700,"1333 Newell Ave Walnut Creek, CA 94596",https://www.wholefoodsmarket.com/stores/walnutcreek,-122.055304,"37.892732"",",walnutcreek,CA
Sonoma,,(707) 938-8500,"201 W Napa St Sonoma, CA 95476",https://www.wholefoodsmarket.com/stores/sonoma,-122.462716,"38.291326"",",sonoma,CA
Lafayette,,(925) 284-5305,"3502 Mt Diablo Blvd Lafayette, CA 94549",https://www.wholefoodsmarket.com/stores/lafayette,-122.117112,37.89326688,lafayette,CA
San Ramon,,(925) 355-9000,"100 Sunset Dr San Ramon, CA 94583",https://www.wholefoodsmarket.com/stores/ram,-121.961301,"37.761759"",",ram,CA
Dublin CA,,(925) 452-2226,"5200 Dublin Blvd Dublin, CA 94568",https://www.wholefoodsmarket.com/stores/dublin-ca,-121.889777,37.70564819,dublin-ca,CA
Berkeley,,(510) 649-1333,"3000 Telegraph Ave Berkeley, CA 94705",https://www.wholefoodsmarket.com/stores/berkeley,-122.260418,"37.855461"",",berkeley,CA
Gilman,,(510) 809-8293,"1025 Gilman St Berkeley, CA 94710",https://www.wholefoodsmarket.com/stores/gilman,-122.297552,"37.880873"",",gilman,CA
Santa Rosa,,(707) 575-7915,"1181 Yulupa Ave Santa Rosa, CA 95405",https://www.wholefoodsmarket.com/stores/santarosa,-122.674508,38.44240874,santarosa,CA
Temescal,,(510) 903-2222,"5110 Telegraph Ave Oakland, CA 94609",https://www.wholefoodsmarket.com/stores/temescal,-122.261575,"37.8376579""",temescal,CA
Oakland,,(510) 834-9800,"230 Bay Pl Oakland, CA 94612",https://www.wholefoodsmarket.com/stores/oakland,-122.260504,"37.812934"",",oakland,CA
Petaluma,,(707) 762-9352,"621 E Washington St Petaluma, CA 94952",https://www.wholefoodsmarket.com/stores/petaluma,-122.634423,"38.241187"",",petaluma,CA
Novato,,(415) 878-0455,"790 De Long Ave Novato, CA 94945",https://www.wholefoodsmarket.com/stores/novato,-122.565443,38.10588079,novato,CA
Coddingtown,,(707) 542-7411,"390 Coddingtown Mall Santa Rosa, CA 95401",https://www.wholefoodsmarket.com/stores/coddingtown,-122.731799,38.45797474,coddingtown,CA
San Rafael,,(415) 451-6333,"340 3rd St San Rafael, CA 94901",https://www.wholefoodsmarket.com/stores/sanrafael,-122.516766,"37.971236"",",sanrafael,CA
Fremont - California,,(510) 401-5880,"3111 Mowry Ave Fremont, CA 94538",https://www.wholefoodsmarket.com/stores/fremont-ca,-121.985073,37.55489857,fremont-ca,CA
Blithedale,,(415) 381-3900,"731 E Blithedale Ave Mill Valley, CA 94941",https://www.wholefoodsmarket.com/stores/blithedale,-122.525902,37.90251522,blithedale,CA
SoMa,,(415) 618-0066,"399 4th St San Francisco, CA 94107",https://www.wholefoodsmarket.com/stores/soma,-122.399626,"37.781155"",",soma,CA
Sebastopol,,(707) 829-9801,"6910 McKinley St Sebastopol, CA 95472",https://www.wholefoodsmarket.com/stores/sebastopol,-122.824105,"38.403778"",",sebastopol,CA
Franklin,,(415) 674-0500,"1765 California St San Francisco, CA 94109",https://www.wholefoodsmarket.com/stores/franklin,-122.423405,"37.789948"",",franklin,CA
Mill Valley,,(415) 381-1200,"414 Miller Ave Mill Valley, CA 94941",https://www.wholefoodsmarket.com/stores/millvalley,-122.536231,"37.896109"",",millvalley,CA
Potrero Hill,,(415) 552-1155,"450 Rhode Island St San Francisco, CA 94107",https://www.wholefoodsmarket.com/stores/potrerohill,-122.402825,"37.764634"",",potrerohill,CA
2001 Market Street,,(415) 626-1430,"2001 Market St San Francisco, CA 94114",https://www.wholefoodsmarket.com/stores/2001marketstreet,-122.427133,"37.76861"",
",2001marketstreet,CA
Noe Valley,,(415) 282-4700,"3950 24th St San Francisco, CA 94114",https://www.wholefoodsmarket.com/stores/noevalley,-122.430835,"37.751914"",",noevalley,CA
Haight Street,,(415) 876-6740,"690 Stanyan St San Francisco, CA 94117",https://www.wholefoodsmarket.com/stores/haightstreet,"-122.45278""","37.769562"",",haightstreet,CA
Ocean,,(415) 333-7400,"1150 Ocean Ave San Francisco, CA 94112",https://www.wholefoodsmarket.com/stores/ocean,-122.454367,"37.7237013""",ocean,CA
Stonestown,,(415) 375-4242,"3251 20th Ave San Francisco, CA 94132",https://www.wholefoodsmarket.com/stores/stonestown,"-122.4771""
","37.728"",
  ",stonestown,CA
San Mateo,,(650) 358-6900,"1010 Park Pl San Mateo, CA 94403",https://www.wholefoodsmarket.com/stores/sanmateo,-122.291697,"37.543935"",",sanmateo,CA
Santa Clara,,(408) 562-9162,"2732 Augustine Dr  Santa Clara, CA 95054",https://www.wholefoodsmarket.com/stores/santaclara,"-121.976""
 ","37.3808"",
 ",santaclara,CA
Redwood City,,(650) 367-1400,"1250 Jefferson Ave Redwood City, CA 94062",https://www.wholefoodsmarket.com/stores/redwoodcity,-122.231638,"37.482311"",",redwoodcity,CA
Palo Alto,,(650) 326-8676,"774 Emerson St Palo Alto, CA 94301",https://www.wholefoodsmarket.com/stores/paloalto,-122.159372,"37.442281"",",paloalto,CA
San Jose - on The Alameda,,(408) 207-1126,"777 The Alameda San Jose, CA 95126",https://www.wholefoodsmarket.com/stores/sanjose,-121.904991,"37.332295"",",sanjose,CA
Sunnyvale,,(408) 419-1290,"150 E McKinley Ave Sunnyvale, CA 94086",https://www.wholefoodsmarket.com/stores/sunnyvale,-122.030499,"37.373982"",",sunnyvale,CA
Los Altos,,(650) 559-0300,"4800 El Camino Real Los Altos, CA 94022",https://www.wholefoodsmarket.com/stores/losaltos,-122.110571,"37.398989"",",losaltos,CA
Campbell,,(408) 371-5000,"1690 S Bascom Ave Campbell, CA 95008",https://www.wholefoodsmarket.com/stores/campbell,-121.930487,37.29291591,campbell,CA
Cupertino,,(408) 257-7000,"20955 Stevens Creek Blvd Cupertino, CA 95014",https://www.wholefoodsmarket.com/stores/cupertino,-122.039662,"37.3234975""",cupertino,CA
Blossom Hill,,(408) 266-3700,"1146 Blossom Hill Rd San Jose, CA 95118",https://www.wholefoodsmarket.com/stores/blossomhill,-121.876958,37.24942149,blossomhill,CA
Los Gatos,,(408) 358-4434,"15980 Los Gatos Blvd Los Gatos, CA 95032",https://www.wholefoodsmarket.com/stores/losgatos,-121.961389,"37.23612"",
",losgatos,CA
Capitola,,(831) 464-2900,"1710 41st Ave Capitola, CA 95010",https://www.wholefoodsmarket.com/stores/capitola,-121.963562,"36.974291"",",capitola,CA
Santa Cruz,,(831) 426-9901,"911 Soquel Ave Santa Cruz, CA 95062",https://www.wholefoodsmarket.com/stores/santacruz,-122.014567,36.97883942,santacruz,CA
Fresno,,(559) 241-0300,"650 W Shaw Ave Fresno, CA 93704",https://www.wholefoodsmarket.com/stores/fresno,-119.805345,"36.809279"",",fresno,CA
Monterey,,(831) 333-1600,"800 Del Monte Center Monterey, CA 93940",https://www.wholefoodsmarket.com/stores/monterey,"-121.90037""","36.58338"",
",monterey,CA
San Luis Obispo,,(805) 785-0194,"1531 Froom Ranch Way San Luis Obispo, CA 93405",https://www.wholefoodsmarket.com/stores/sanluisobispo,-120.687432,"35.250638"",",sanluisobispo,CA
Santa Barbara,,(805) 837-6959,"3761 State St Santa Barbara, CA 93105",https://www.wholefoodsmarket.com/stores/santabarbara,-119.745512,34.43934579,santabarbara,CA
Oxnard,,(805) 751-4300,"650 Town Center Dr Oxnard, CA 93036",https://www.wholefoodsmarket.com/stores/oxnard,-119.179398,34.24025699,oxnard,CA
Valencia,,(661) 260-2377,"24130 Valencia Blvd Santa Clarita, CA 91355",https://www.wholefoodsmarket.com/stores/val,-118.555862,"34.41244"",
",val,CA
Thousand Oaks,,(805) 777-4730,"740 North Moorpark Rd Thousand Oaks, CA 91360",https://www.wholefoodsmarket.com/stores/thousandoaks,-118.873257,"34.187709"",",thousandoaks,CA
Porter Ranch,,(818) 363-3933,"20209 W Rinaldi St Porter Ranch, CA 91326",https://www.wholefoodsmarket.com/stores/porterranch,-118.574702,"34.275797"",",porterranch,CA
Woodland Hills,,(818) 610-0000,"21347 Ventura Blvd Woodland Hills, CA 91364",https://www.wholefoodsmarket.com/stores/woodlandhills,-118.596933,"34.168227"",",woodlandhills,CA
Sherman Oaks West,,(818) 382-3700,"4520 N Sepulveda Blvd Sherman Oaks, CA 91403",https://www.wholefoodsmarket.com/stores/shermanoaks-west,-118.466601,"34.151881"",",shermanoaks-west,CA
Sherman Oaks,,(818) 528-8030,"14311 Ventura Blvd Sherman Oaks, CA 91423",https://www.wholefoodsmarket.com/stores/sherman-oaks,"-118.44504""","34.15067"",
",sherman-oaks,CA
Sherman Oaks East,,(818) 853-8600,"12905 Riverside Dr Sherman Oaks, CA 91423",https://www.wholefoodsmarket.com/stores/shermanoakseast,-118.414101,"34.157986"",",shermanoakseast,CA
Malibu,,(424) 425-7351,"23401 Civic Center Way Malibu, CA 90265",https://www.wholefoodsmarket.com/stores/malibu,-118.686429,"34.038516"",",malibu,CA
Burbank,,(818) 239-5380,"3401 W Olive Ave Burbank, CA 91505",https://www.wholefoodsmarket.com/stores/burbank,-118.337861,"34.154293"",",burbank,CA
Glendale,,(818) 548-3695,"331 N Glendale Ave Glendale, CA 91206",https://www.wholefoodsmarket.com/stores/glendale,-118.245876,"34.150993"",",glendale,CA
Brentwood,,(310) 826-4433,"11737 San Vicente Blvd Los Angeles, CA 90049",https://www.wholefoodsmarket.com/stores/brentwood,-118.467401,"34.053675"",",brentwood,CA
Westwood,,(310) 824-0858,"1050 S Gayley Ave Los Angeles, CA 90024",https://www.wholefoodsmarket.com/stores/westwood,-118.446981,"34.061192"",",westwood,CA
West Hollywood,,(323) 848-4200,"7871 Santa Monica Blvd West Hollywood, CA 90046",https://www.wholefoodsmarket.com/stores/westhollywood,-118.360767,"34.091753"",",westhollywood,CA
Beverly Hills,,(310) 274-3360,"239 N Crescent Dr Beverly Hills, CA 90210",https://www.wholefoodsmarket.com/stores/beverlyhills,-118.398361,34.06946593,beverlyhills,CA
Montana Avenue,,(310) 576-4707,"1425 Montana Ave Santa Monica, CA 90403",https://www.wholefoodsmarket.com/stores/montanaave,"-118.4947""
","34.0328"",
 ",montanaave,CA
23rd & Wilshire Blvd,,(310) 315-0662,"2201 Wilshire Blvd Santa Monica, CA 90403",https://www.wholefoodsmarket.com/stores/santamonica,-118.481209,"34.033353"",",santamonica,CA
3rd & Fairfax,,(323) 964-6800,"6350 W 3rd St Los Angeles, CA 90036",https://www.wholefoodsmarket.com/stores/fairfax,"-118.36057""","34.070373"",",fairfax,CA
Santa Monica Pico,,(310) 752-1155,"2121 Cloverfield Blvd Santa Monica, CA 90404",https://www.wholefoodsmarket.com/stores/santamonicapico,-118.465394,"34.02194"",
",santamonicapico,CA
Silver Lake,,(323) 378-3891,"2520 Glendale Blvd Los Angeles, CA 90039",https://www.wholefoodsmarket.com/stores/silverlake,-118.258569,"34.1028973""",silverlake,CA
West Los Angeles,,(310) 996-8840,"11666 National Blvd Los Angeles, CA 90064",https://www.wholefoodsmarket.com/stores/westlosangeles,-118.438023,"34.022596"",",westlosangeles,CA
Arroyo,,(626) 204-2266,"465 S Arroyo Pkwy Pasadena, CA 91105",https://www.wholefoodsmarket.com/stores/arroyo,"-118.14776""","34.1381"",
 ",arroyo,CA
Venice,,(310) 566-9480,"225 Lincoln Blvd Venice, CA 90291",https://www.wholefoodsmarket.com/stores/venice,"-118.46977""","34.001301"",",venice,CA
Culver City,,(424) 434-7960,"3377 S. La Cienega Blvd Los Angeles, CA 90016",https://www.wholefoodsmarket.com/stores/culvercity,-118.372746,"34.027058"",",culvercity,CA
Pasadena,,(626) 351-5994,"3751 E Foothill Blvd Pasadena, CA 91107",https://www.wholefoodsmarket.com/stores/pasadena,-118.072185,34.15110506,pasadena,CA
Downtown Los Angeles,,(213) 873-4745,"788 S Grand Ave Los Angeles, CA 90017",https://www.wholefoodsmarket.com/stores/downtownlosangeles,-118.257533,"34.045919"",",downtownlosangeles,CA
Playa Vista,,(310) 862-9900,"12746 W Jefferson Blvd Playa Vista, CA 90094",https://www.wholefoodsmarket.com/stores/playavista,-118.418242,33.97693119,playavista,CA
Plaza El Segundo,,(310) 333-1900,"760 S Sepulveda Blvd El Segundo, CA 90245",https://www.wholefoodsmarket.com/stores/elsegundo,-118.392800,33.90631911,elsegundo,CA
Redondo Beach,,(310) 376-6931,"405 N Pacific Coast Hwy Redondo Beach, CA 90277",https://www.wholefoodsmarket.com/stores/redondobeach,-118.389355,"33.847366"",",redondobeach,CA
Upland,,(909) 579-2670,"2153 W Baseline Rd Upland, CA 91784",https://www.wholefoodsmarket.com/stores/upland,-117.692489,"34.122944"",",upland,CA
Torrance,,(310) 257-8700,"2655 Pacific Coast Hwy Torrance, CA 90505",https://www.wholefoodsmarket.com/stores/torrance,-118.330984,"33.792447"",",torrance,CA
Long Beach Lakewood,,(562) 548-1840,"3881 Lakewood Blvd Long Beach, CA 90808",https://www.wholefoodsmarket.com/stores/longbeachlakewood,-118.144204,"33.829837"",",longbeachlakewood,CA
Brea,,(714) 528-7400,"3301 E Imperial Hwy Brea, CA 92823",https://www.wholefoodsmarket.com/stores/brea,-117.851382,"33.91008"",
",brea,CA
Long Beach,,(562) 598-8687,"6400 E Pacific Coast Hwy Long Beach, CA 90803",https://www.wholefoodsmarket.com/stores/longbeach,-118.111403,"33.757522"",",longbeach,CA
Huntington Beach,,(657) 200-4200,"7881 Edinger Ave  Huntington Beach, CA 92647",https://www.wholefoodsmarket.com/stores/huntingtonbeach,-117.990514,33.73120892,huntingtonbeach,CA
Brookhurst,,(714) 594-6850,"10081 Adams Ave Huntington Beach, CA 92646",https://www.wholefoodsmarket.com/stores/brookhurst,-117.952253,"33.673401"",",brookhurst,CA
Jamboree,,(714) 566-7650,"2847 Park Ave Tustin, CA 92782",https://www.wholefoodsmarket.com/stores/tustin,"-117.8256""
","33.6963"",
 ",tustin,CA
Newport Beach,,(949) 999-8572,"415 Newport Center Dr Newport Beach, CA 92660",https://www.wholefoodsmarket.com/stores/newport,-117.873809,33.61662616,newport,CA
Irvine,,(949) 777-8500,"8525 Irvine Center Dr Irvine, CA 92618",https://www.wholefoodsmarket.com/stores/irvine,-117.744356,33.64616259,irvine,CA
Laguna Beach,,(949) 376-7888,"283 Broadway St Laguna Beach, CA 92651",https://www.wholefoodsmarket.com/stores/lagunabeach,-117.783815,"33.543856"",",lagunabeach,CA
Laguna Niguel,,(949) 900-5830,"23932 Aliso Creek Rd Laguna Niguel, CA 92677",https://www.wholefoodsmarket.com/stores/lagunaniguel,-117.712557,33.55445742,lagunaniguel,CA
Palm Desert,,(760) 797-8200,"44-459 Town Center Way Palm Desert, CA 92260",https://www.wholefoodsmarket.com/stores/palmdesert,-116.399894,"33.725591"",",palmdesert,CA
Del Mar,,(858) 436-9800,"2600 Via De La Valle Del Mar, CA 92014",https://www.wholefoodsmarket.com/stores/delmar,-117.251956,32.98120192,delmar,CA
La Jolla,,(858) 642-6700,"8825 Villa La Jolla Dr La Jolla, CA 92037",https://www.wholefoodsmarket.com/stores/lajolla,-117.230611,"32.868764"",",lajolla,CA
Hillcrest,,(619) 294-2800,"711 University Ave San Diego, CA 92103",https://www.wholefoodsmarket.com/stores/sandiego,-117.158201,"32.748193"",",sandiego,CA
Pikes Peak,,(719) 531-9999,"7635 N Academy Blvd Colorado Springs, CO 80920",https://www.wholefoodsmarket.com/stores/ppk,-104.797551,38.94201627,ppk,CO
Roaring Fork,,(970) 927-1500,"340 Reed St Basalt, CO 81621",https://www.wholefoodsmarket.com/stores/roaringfork,-107.082761,"39.3870291""",roaringfork,CO
Frisco,,(970) 668-9400,"261 Lusher Ct Frisco, CO 80443",https://www.wholefoodsmarket.com/stores/frisco,-106.100429,"39.5885327""",frisco,CO
Ideal Market Boulder,,(303) 443-1354,"1275 Alpine Ave Boulder, CO 80304",https://www.wholefoodsmarket.com/stores/idealmarket,"-105.28081""","40.026016"",",idealmarket,CO
Pearl,,(303) 545-6611,"2905 Pearl St Boulder, CO 80301",https://www.wholefoodsmarket.com/stores/boulder,"-105.25593""","40.023856"",",boulder,CO
Boulder Table Mesa,,(303) 376-6980,"695 S Broadway Boulder, CO 80305",https://www.wholefoodsmarket.com/stores/bouldertablemesa,-105.248489,"39.983106"",",bouldertablemesa,CO
Superior,,(720) 274-1415,"303 Marshall Rd Superior, CO 80027",https://www.wholefoodsmarket.com/stores/superior,-105.167913,"39.9565471""",superior,CO
Colfax,,(303) 277-1339,"14357 W Colfax Ave Golden, CO 80401",https://www.wholefoodsmarket.com/stores/colfax,-105.161477,"39.736505"",",colfax,CO
Longmont,,(720) 438-2550,"1250 South Hover Rd Longmont, CO 80501",https://www.wholefoodsmarket.com/stores/longmont,-105.129445,40.14519213,longmont,CO
Governor's Ranch,,(303) 586-5220,"5155 S Wadsworth Blvd Littleton, CO 80123",https://www.wholefoodsmarket.com/stores/governorsranch,-105.092234,"39.623154"",",governorsranch,CO
Belmar,,(303) 935-5000,"444 S Wadsworth Blvd Lakewood, CO 80226",https://www.wholefoodsmarket.com/stores/belmar,-105.080854,39.70861913,belmar,CO
Fort Collins,,(970) 267-9200,"2201 S College Ave Fort Collins, CO 80525",https://www.wholefoodsmarket.com/stores/fortcollins,-105.078926,"40.558999"",",fortcollins,CO
Bradburn,,(303) 439-7000,"4451 Main St Westminster, CO 80031",https://www.wholefoodsmarket.com/stores/bradburn,-105.044668,"39.913407"",",bradburn,CO
Union Station,,(720) 572-8800,"1701 Wewatta St Denver, CO 80202",https://www.wholefoodsmarket.com/stores/unionstation,-105.001449,"39.754583"",",unionstation,CO
Washington Park,,(303) 733-6201,"1111 S Washington St Denver, CO 80210",https://www.wholefoodsmarket.com/stores/washingtonpark,-104.979965,"39.695988"",",washingtonpark,CO
Capitol Hill,,(720) 643-1750,"900 E 11th Ave Denver, CO 80218",https://www.wholefoodsmarket.com/stores/capitolhill,"-104.97578""","39.733292"",",capitolhill,CO
SouthGlenn,,(303) 996-3660,"6853 S York  Centennial, CO 80122",https://www.wholefoodsmarket.com/stores/southglenn,-104.962116,"39.592051"",",southglenn,CO
Cherry Creek,,(720) 941-4100,"2375 E 1st Ave Denver, CO 80206",https://www.wholefoodsmarket.com/stores/cherrycreek,-104.957942,39.71852283,cherrycreek,CO
Colorado Blvd,,(303) 691-0101,"870 S Colorado Blvd Glendale, CO 80246",https://www.wholefoodsmarket.com/stores/coloradoblvd,-104.939652,"39.700741"",",coloradoblvd,CO
Highlands Ranch,,(303) 470-6003,"9366 S Colorado Blvd Highlands Ranch, CO 80126",https://www.wholefoodsmarket.com/stores/highlandsranch,-104.942097,"39.545043"",",highlandsranch,CO
Tamarac,,(303) 488-2000,"7400 E Hampden Ave Denver, CO 80231",https://www.wholefoodsmarket.com/stores/tamarac,-104.901844,"39.652019"",",tamarac,CO
Castle Rock,,(720) 673-4700,"6384 Promenade Pkwy Castle Rock, CO 80108",https://www.wholefoodsmarket.com/stores/castlerock,"-104.87755""","39.42338"",
",castlerock,CO
Greenwich,,(203) 661-0631,"90 E Putnam Ave Greenwich, CT 06830",https://www.wholefoodsmarket.com/stores/greenwich,"-73.623931""","41.033122"",",greenwich,CT
Danbury,,(203) 730-0599,"5C Sugar Hollow Rd Danbury, CT 06810",https://www.wholefoodsmarket.com/stores/danbury,"-73.475708""","41.377866"",",danbury,CT
Darien,,(203) 662-0577,"150 Ledge Rd Darien, CT 06820",https://www.wholefoodsmarket.com/stores/darien,"-73.476173""","41.073271"",",darien,CT
Westport,,(203) 227-6858,"399 Post Rd W Westport, CT 06880",https://www.wholefoodsmarket.com/stores/westport,"-73.379973""","41.128085"",",westport,CT
Fairfield,,(203) 319-9544,"350 Grasmere Ave Fairfield, CT 06824",https://www.wholefoodsmarket.com/stores/fairfield,"-73.240134""","41.158234"",",fairfield,CT
Milford,,(203) 874-0883,"1686 Boston Post Road Milford, CT 06460",https://www.wholefoodsmarket.com/stores/milford,"-73.025162""","41.248251"",",milford,CT
Avon Village,,(860) 777-2070,"50 Climax Rd Avon, CT 06001",https://www.wholefoodsmarket.com/stores/avonvillage,"-72.838305""","41.811769"",",avonvillage,CT
Bishops Corner,,(860) 523-7174,"340 N Main St West Hartford, CT 06117",https://www.wholefoodsmarket.com/stores/bishopscorner,"-72.745477""","41.784729"",",bishopscorner,CT
West Hartford,,(860) 523-8500,"50 Raymond Rd West Hartford, CT 06107",https://www.wholefoodsmarket.com/stores/westhartford,-72.7389321,41.76096264,westhartford,CT
Glastonbury,,(860) 652-9800,"55 Welles St Glastonbury, CT 06033",https://www.wholefoodsmarket.com/stores/glastonbury,"-72.607763""","41.714842"",",glastonbury,CT
South Windsor,,(860) 474-4100,"800 Evergreen Way South Windsor, CT 06074",https://www.wholefoodsmarket.com/stores/southwindsor,-72.5560265,41.81563581,southwindsor,CT
Pearl District Portland,,(503) 525-4343,"1210 NW Couch St Portland, OR 97209",https://www.wholefoodsmarket.com/stores/pearl,-122.683434,"45.523508"",",pearl,OR
Tenleytown,,(202) 237-5800,"4530 40th St NW Washington, DC 20016",https://www.wholefoodsmarket.com/stores/tenley,"-77.079298""","38.949055"",",tenley,DC
Glover Park,,(202) 747-5570,"2323 Wisconsin Ave, NW Washington, DC 20007",https://www.wholefoodsmarket.com/stores/gloverpark,"-77.071286""","38.920936"",",gloverpark,DC
Historic Walter Reed,,(202) 846-6680,"7130 12th Street NW Washington, DC 20012",https://www.wholefoodsmarket.com/stores/historicwalterreed,-77.0281346,"38.9765737""",historicwalterreed,DC
Foggy Bottom,,(202) 296-1660,"2201 I Street NW Washington, DC 20037",https://www.wholefoodsmarket.com/stores/foggybottom,"-77.049016""","38.900843"",",foggybottom,DC
P Street,,(202) 332-4300,"1440 P Street NW Washington, DC 20005",https://www.wholefoodsmarket.com/stores/pstreet,"-77.033419""","38.909371"",",pstreet,DC
Florida Avenue,,(202) 519-3400,"967 Florida Avenue NW Washington, DC 20001",https://www.wholefoodsmarket.com/stores/floridaavenue,"-77.0247""
 ","38.9196"",
 ",floridaavenue,DC
South Capitol Hill,,(202) 469-7280,"101 H St SE Washington, DC 20003",https://www.wholefoodsmarket.com/stores/southcapitolhill,"-77.005132""","38.88026"",
",southcapitolhill,DC
H Street,,(202) 469-7410,"600 H St NE Washington, DC 20002",https://www.wholefoodsmarket.com/stores/hstreet,"-76.998054""","38.900447"",",hstreet,DC
Tenleytown,,(202) 237-5800,"4530 40th St NW Washington, DC 20016",https://www.wholefoodsmarket.com/stores/tenley,"-77.079298""","38.949055"",",tenley,DC
Glover Park,,(202) 747-5570,"2323 Wisconsin Ave, NW Washington, DC 20007",https://www.wholefoodsmarket.com/stores/gloverpark,"-77.071286""","38.920936"",",gloverpark,DC
Historic Walter Reed,,(202) 846-6680,"7130 12th Street NW Washington, DC 20012",https://www.wholefoodsmarket.com/stores/historicwalterreed,-77.0281346,"38.9765737""",historicwalterreed,DC
Foggy Bottom,,(202) 296-1660,"2201 I Street NW Washington, DC 20037",https://www.wholefoodsmarket.com/stores/foggybottom,"-77.049016""","38.900843"",",foggybottom,DC
P Street,,(202) 332-4300,"1440 P Street NW Washington, DC 20005",https://www.wholefoodsmarket.com/stores/pstreet,"-77.033419""","38.909371"",",pstreet,DC
Florida Avenue,,(202) 519-3400,"967 Florida Avenue NW Washington, DC 20001",https://www.wholefoodsmarket.com/stores/floridaavenue,"-77.0247""
 ","38.9196"",
 ",floridaavenue,DC
South Capitol Hill,,(202) 469-7280,"101 H St SE Washington, DC 20003",https://www.wholefoodsmarket.com/stores/southcapitolhill,"-77.005132""","38.88026"",
",southcapitolhill,DC
H Street,,(202) 469-7410,"600 H St NE Washington, DC 20002",https://www.wholefoodsmarket.com/stores/hstreet,"-76.998054""","38.900447"",",hstreet,DC
Destin,,(850) 269-7400,"4402 Legendary Dr Destin, FL 32541",https://www.wholefoodsmarket.com/stores/destin,-86.4200384,30.39023957,destin,FL
Tallahassee,,(850) 513-4200,"1817 Thomasville Rd Tallahassee, FL 32303",https://www.wholefoodsmarket.com/stores/tallahassee,"-84.269918""","30.462981"",",tallahassee,FL
Gainesville,,(352) 244-8302,"3490 SW Archer Rd Gainesville, FL 32608",https://www.wholefoodsmarket.com/stores/gainesville,"-82.375989""","29.625708"",",gainesville,FL
Jacksonville,,(904) 288-1100,"10601 San Jose Blvd Jacksonville, FL 32257",https://www.wholefoodsmarket.com/stores/jacksonville,-81.6259731,"30.1849746""",jacksonville,FL
Clearwater,,(727) 724-7100,"27001 US 19 N Clearwater, FL 33761",https://www.wholefoodsmarket.com/stores/clearwater,"-82.73576""
","28.016949"",",clearwater,FL
Jacksonville Beach,,(904) 685-7370,"2050 3rd St S Jacksonville Beach, FL 32250",https://www.wholefoodsmarket.com/stores/jacksonvillebeach,"-81.390046""","30.270282"",",jacksonvillebeach,FL
Carrollwood,,(813) 264-3600,"3802 Northdale Blvd Tampa, FL 33624",https://www.wholefoodsmarket.com/stores/carrollwood,-82.5041459,28.09317937,carrollwood,FL
St. Petersburg,,(727) 342-1055,"201 38th Ave N St. Petersburg, FL 33704",https://www.wholefoodsmarket.com/stores/stpetersburg,-82.6361426,27.80886289,stpetersburg,FL
Midtown Tampa,,(813) 323-9466,"3740 Midtown Dr Tampa, FL 33607",https://www.wholefoodsmarket.com/stores/midtowntampa,"-82.504749""","27.952455"",",midtowntampa,FL
Sarasota,,(941) 316-4700,"1451 1st St Sarasota, FL 34236",https://www.wholefoodsmarket.com/stores/sarasota,"-82.541217""","27.337654"",",sarasota,FL
Florida Avenue,,(202) 519-3400,"967 Florida Avenue NW Washington, DC 20001",https://www.wholefoodsmarket.com/stores/floridaavenue,"-77.0247""
 ","38.9196"",
 ",floridaavenue,DC
University Station,,(941) 806-6130,"5298 University Pkwy Sarasota, FL 34243",https://www.wholefoodsmarket.com/stores/universitystation,"-82.464528""","27.386894"",",universitystation,FL
Altamonte Springs,,(407) 767-2100,"305 E Altamonte Dr Altamonte Springs, FL 32701",https://www.wholefoodsmarket.com/stores/altamontesprings,"-81.381454""","28.664256"",",altamontesprings,FL
Orlando,,(407) 355-7100,"8003 Turkey Lake Rd Orlando, FL 32819",https://www.wholefoodsmarket.com/stores/orlando,-81.4767373,28.44918496,orlando,FL
Winter Park North,,(407) 377-6040,"1030 N Orlando Ave Winter Park, FL 32789",https://www.wholefoodsmarket.com/stores/winterparknorth,"-81.363309""","28.606846"",",winterparknorth,FL
Fort Myers,,(239) 935-6550,"6891 Daniels Pkwy Fort Myers, FL 33912",https://www.wholefoodsmarket.com/stores/fortmyers,"-81.842444""","26.547953"",",fortmyers,FL
Naples,,(239) 552-5100,"9101 Strada Pl Naples, FL 34108",https://www.wholefoodsmarket.com/stores/naples,"-81.800214""","26.254626"",",naples,FL
Palm Beach Gardens,,(561) 691-8550,"11701 Lake Victoria Gardens Ave Palm Beach Gardens, FL 33410",https://www.wholefoodsmarket.com/stores/palmbeachgardens,-80.0943331,26.84823415,palmbeachgardens,FL
Wellington,,(561) 904-4000,"2635 FL-7 Wellington, FL 33414",https://www.wholefoodsmarket.com/stores/wellington,"-80.206286""","26.64126"",
",wellington,FL
West Palm Beach,,(561) 471-3800,"1845 Palm Beach Lakes Blvd West Palm Beach, FL 33401",https://www.wholefoodsmarket.com/stores/westpalmbeach,-80.0892298,26.72068198,westpalmbeach,FL
Coral Springs,,(954) 796-5800,"810 University Dr Coral Springs, FL 33071",https://www.wholefoodsmarket.com/stores/coralsprings,-80.2566661,"26.2425174""",coralsprings,FL
Delray Beach,,(561) 639-5701,"680 Linton Blvd Delray Beach, FL 33444",https://www.wholefoodsmarket.com/stores/delraybeach,"-80.079591""","26.439288"",",delraybeach,FL
Boca Raton,,(561) 447-0000,"1400 Glades Rd Boca Raton, FL 33431",https://www.wholefoodsmarket.com/stores/bocaraton,-80.1149260,26.36599434,bocaraton,FL
Pembroke Pines,,(954) 392-3500,"14956 Pines Blvd Pembroke Pines, FL 33027",https://www.wholefoodsmarket.com/stores/pembrokepines,-80.3497218,26.00651076,pembrokepines,FL
Davie,,(954) 916-3000,"1903 S University Dr Davie, FL 33324",https://www.wholefoodsmarket.com/stores/davie,-80.2519529,26.09671937,davie,FL
Pompano Beach,,(954) 786-3500,"2411 N Federal Hwy Pompano Beach, FL 33062",https://www.wholefoodsmarket.com/stores/pompanobeach,"-80.101005""","26.261521"",",pompanobeach,FL
Fort Lauderdale,,(954) 398-2000,"2000 N Federal Hwy Fort Lauderdale, FL 33305",https://www.wholefoodsmarket.com/stores/fortlauderdale,"-80.117585""","26.153671"",",fortlauderdale,FL
17th Street,,(954) 380-8440,"501 SE 17th St Fort Lauderdale, FL 33316",https://www.wholefoodsmarket.com/stores/17thstreet,"-80.137952""","26.100564"",",17thstreet,FL
Aventura,,(305) 682-4400,"21105 Biscayne Blvd Aventura, FL 33180",https://www.wholefoodsmarket.com/stores/aventura,"-80.140821""","25.971134"",",aventura,FL
Dadeland,,(305) 969-5800,"7930 SW 104th St Miami, FL 33156",https://www.wholefoodsmarket.com/stores/dadeland,"-80.3233""
 ","25.6734"",
 ",dadeland,FL
North Miami,,(305) 892-5500,"12150 Biscayne Blvd North Miami, FL 33181",https://www.wholefoodsmarket.com/stores/northmiami,"-80.165262""","25.887864"",",northmiami,FL
Coral Gables,,(305) 421-9421,"6701 Red Rd Coral Gables, FL 33143",https://www.wholefoodsmarket.com/stores/coralgables,"-80.284659""","25.706282"",",coralgables,FL
Downtown Miami,,(305) 995-0600,"299 SE 3rd Ave Miami, FL 33131",https://www.wholefoodsmarket.com/stores/downtownmiami,"-80.189606""","25.772077"",",downtownmiami,FL
South Beach,,(305) 938-2800,"1020 Alton Rd Miami Beach, FL 33139",https://www.wholefoodsmarket.com/stores/southbeach,"-80.14119""
","25.780968"",",southbeach,FL
Kennesaw,,(770) 578-4400,"1300 Ernest Barrett Pkwy Kennesaw, GA 30144",https://www.wholefoodsmarket.com/stores/kennesaw,"-84.589564""","33.997529"",",kennesaw,GA
Merchants Walk,,(678) 996-9700,"1311 Johnson Ferry Rd NE Marietta, GA 30068",https://www.wholefoodsmarket.com/stores/merchantswalk,-84.4277708,33.98099319,merchantswalk,GA
Northside Buckhead,,(470) 552-3040,"3535 Northside Pkwy Atlanta, GA 30327",https://www.wholefoodsmarket.com/stores/northsidebuckhead,"-84.429551""","33.850181"",",northsidebuckhead,GA
Sandy Springs,,(404) 236-0810,"5930 Roswell Rd Atlanta, GA 30328",https://www.wholefoodsmarket.com/stores/sandysprings,"-84.379946""","33.918073"",",sandysprings,GA
Buckhead,,(404) 324-4100,"77 West Paces Ferry Rd NW Atlanta, GA 30305",https://www.wholefoodsmarket.com/stores/buckhead,"-84.381148""","33.840841"",",buckhead,GA
Avalon,,(678) 534-3138,"2800 Old Milton Pkwy Alpharetta, GA 30009",https://www.wholefoodsmarket.com/stores/avalon,"-84.278488""","34.06934"",
",avalon,GA
Midtown Atlanta,,(470) 552-4201,"22 14th St NW Atlanta, GA 30309",https://www.wholefoodsmarket.com/stores/midtownatlanta,"-84.389""
  ","33.7864"",
 ",midtownatlanta,GA
Ponce de Leon,,(404) 853-1681,"650 Ponce de Leon Ave NE Atlanta, GA 30308",https://www.wholefoodsmarket.com/stores/poncedeleon,"-84.365756""","33.774805"",",poncedeleon,GA
Chamblee,,(470) 552-0750,"5001 Peachtree Blvd Atlanta, GA 30341",https://www.wholefoodsmarket.com/stores/chamblee,"-84.314124""","33.88506"",
",chamblee,GA
Decatur,,(470) 237-7340,"1555 Church St Decatur, GA 30033",https://www.wholefoodsmarket.com/stores/decatur,"-84.28424""
","33.792778"",",decatur,GA
Johns Creek,,(678) 514-2400,"5945 State Bridge Rd Duluth, GA 30097",https://www.wholefoodsmarket.com/stores/duluth,"-84.183577""","34.013142"",",duluth,GA
Savannah,,(912) 358-5829,"1815 E Victory Dr  Savannah, GA 31404",https://www.wholefoodsmarket.com/stores/savannah,"-81.071326""","32.043193"",",savannah,GA
Maui,,(808) 872-3310,"70 E Kaahumanu Ave Kahului, HI 96732",https://www.wholefoodsmarket.com/stores/maui,-156.464368,"20.891489"",",maui,HI
Kailua,,(808) 263-6800,"629 Kailua Rd Kailua, HI 96734",https://www.wholefoodsmarket.com/stores/kailua,-157.743038,"21.393653"",",kailua,HI
Honolulu (Kahala Mall),,(808) 738-0820,"4211 Wai'alae Ave Honolulu, HI 96816",https://www.wholefoodsmarket.com/stores/honolulu,-157.786736,"21.277528"",",honolulu,HI
Queen,,(808) 379-1800,"388 Kamakee St Honolulu, HI 96814",https://www.wholefoodsmarket.com/stores/queen,-157.852284,"21.294663"",",queen,HI
West Des Moines,,(515) 343-2600,"4100 University Ave West Des Moines, IA 50266",https://www.wholefoodsmarket.com/stores/westdesmoines,-93.7609972,41.59807959,westdesmoines,IA
Boise,,(208) 287-4600,"401 S Broadway Ave Boise, ID 83702",https://www.wholefoodsmarket.com/stores/boise,-116.194527,43.60778205,boise,ID
Naperville,,(630) 579-7700,"2607 W 75th St Naperville, IL 60540",https://www.wholefoodsmarket.com/stores/naperville,-88.2000023,41.74889505,naperville,IL
Wheaton,,(630) 588-1500,"89 Danada Square East Wheaton, IL 60189",https://www.wholefoodsmarket.com/stores/wheaton,-88.1018252,41.83021764,wheaton,IL
Kildeer,,(847) 726-4601,"20281 Rand Rd Kildeer, IL 60047",https://www.wholefoodsmarket.com/stores/kildeer,-88.0440531,42.15935023,kildeer,IL
Schaumburg,,(847) 585-5800,"750 N Martingale Rd Schaumburg, IL 60173",https://www.wholefoodsmarket.com/stores/schaumburg,"-88.036448""","42.04245"",
",schaumburg,IL
Vernon Hills,,(224) 504-3990,"851 N Milwaukee Ave Vernon Hills, IL 60061",https://www.wholefoodsmarket.com/stores/vernonhills,"-87.943845""","42.241203"",",vernonhills,IL
Elmhurst,,(630) 993-7600,"215 S IL Rte 83 Elmhurst, IL 60126",https://www.wholefoodsmarket.com/stores/elmhurst,"-87.960497""","41.893908"",",elmhurst,IL
Willowbrook,,(630) 655-5000,"6300 Kingery Hwy Willowbrook, IL 60527",https://www.wholefoodsmarket.com/stores/willowbrookkingery,"-87.949487""","41.773077"",",willowbrookkingery,IL
Hinsdale,,(630) 986-8500,"500 E Ogden Ave Hinsdale, IL 60521",https://www.wholefoodsmarket.com/stores/hinsdale,"-87.916802""","41.817478"",",hinsdale,IL
Deerfield,,(847) 444-1900,"760 Waukegan Rd Deerfield, IL 60015",https://www.wholefoodsmarket.com/stores/deerfield,"-87.848029""","42.166232"",",deerfield,IL
Park Ridge,,(847) 292-7100,"225 W Touhy Ave Park Ridge, IL 60068",https://www.wholefoodsmarket.com/stores/parkridge,"-87.824619""","42.010708"",",parkridge,IL
Orland Park,,(708) 364-1350,"15260 South La Grange Road Orland Park, IL 60462",https://www.wholefoodsmarket.com/stores/orlandpark,"-87.854975""","41.6127"",
 ",orlandpark,IL
Northbrook,,(847) 205-5353,"840 Willow Rd Northbrook, IL 60062",https://www.wholefoodsmarket.com/stores/northbrook,-87.8008224,42.10662879,northbrook,IL
River Forest,,(708) 366-1045,"7245 Lake St River Forest, IL 60305",https://www.wholefoodsmarket.com/stores/riverforest,"-87.806366""","41.887286"",",riverforest,IL
Sauganash,,(773) 205-1100,"6020 N Cicero Ave Chicago, IL 60646",https://www.wholefoodsmarket.com/stores/sauganash,"-87.748827""","41.990369"",",sauganash,IL
Green Bay Road,,(847) 424-5700,"2748 Green Bay Rd Evanston, IL 60201",https://www.wholefoodsmarket.com/stores/greenbayroad,"-87.702023""","42.067922"",",greenbayroad,IL
Downtown Evanston,,(847) 733-1600,"1640 Chicago Ave Evanston, IL 60201",https://www.wholefoodsmarket.com/stores/evanston,"-87.679494""","42.047623"",",evanston,IL
Lakeview,,(773) 244-4200,"3201 N. Ashland Ave Chicago, IL 60657",https://www.wholefoodsmarket.com/stores/lakeviewnew,"-87.6684""
 ","41.9399"",
 ",lakeviewnew,IL
Chicago Edgewater,,(773) 506-7600,"6009 N Broadway Chicago, IL 60660",https://www.wholefoodsmarket.com/stores/chicagoedgewater,"-87.660049""","41.99122"",
",chicagoedgewater,IL
Evergreen Park,,(708) 931-3030,"9600 S Western Ave Evergreen Park, IL 60805",https://www.wholefoodsmarket.com/stores/evergreenpark,"-87.684647""","41.717723"",",evergreenpark,IL
Halsted and Waveland,,(773) 472-0400,"3640 N Halsted St Chicago, IL 60613",https://www.wholefoodsmarket.com/stores/northalsted,"-87.649734""","41.948349"",",northalsted,IL
Lincoln Park,,(312) 587-0648,"1550 N Kingsbury St Chicago, IL 60642",https://www.wholefoodsmarket.com/stores/lincolnpark,-87.6531127,41.90912822,lincolnpark,IL
West Loop,,(312) 207-8400,"1 N Halsted St Chicago, IL 60661",https://www.wholefoodsmarket.com/stores/westloop,"-87.6471""
 ","41.88192"",
",westloop,IL
South Loop,,(312) 435-4600,"1101 S Canal St Chicago, IL 60607",https://www.wholefoodsmarket.com/stores/southloop,"-87.638494""","41.868502"",",southloop,IL
One Chicago,,(312) 932-9600,"3 West Chicago Ave Chicago, IL 60654",https://www.wholefoodsmarket.com/stores/onechicago,"-87.62864""
","41.89665"",
",onechicago,IL
Streeterville,,(312) 379-7900,"255 E Grand Ave Chicago, IL 60611",https://www.wholefoodsmarket.com/stores/streeterville,"-87.620864""","41.891671"",",streeterville,IL
Hyde Park,,(773) 819-1600,"5118 S Lake Park Ave Chicago, IL 60615",https://www.wholefoodsmarket.com/stores/hydepark,"-87.588171""","41.802025"",",hydepark,IL
Eighty-Sixth St.,,(317) 706-0900,"1300 E 86th St Indianapolis, IN 46240",https://www.wholefoodsmarket.com/stores/eightysixthst,"-86.137108""","39.91418"",
",eightysixthst,IN
Market Square,,(317) 559-9360,"320 E Market St Indianapolis, IN 46204",https://www.wholefoodsmarket.com/stores/marketsquare,"-86.152368""","39.768591"",",marketsquare,IN
Schererville,,(219) 864-5400,"199 US-41 Schererville, IN 46375",https://www.wholefoodsmarket.com/stores/schererville,-87.4706090,41.51927963,schererville,IN
Mishawaka,,(574) 247-5800,"4230 Grape Rd Mishawaka, IN 46545",https://www.wholefoodsmarket.com/stores/mishawaka,"-86.185709""","41.699025"",",mishawaka,IN
Carmel,,(317) 569-1517,"14598 Clay Terrace Blvd Carmel, IN 46032",https://www.wholefoodsmarket.com/stores/carmel,"-86.131076""","39.999084"",",carmel,IN
Kansas City,,(816) 708-3700,"301 E 51st St Kansas City, MO 64112",https://www.wholefoodsmarket.com/stores/kansascity,"-94.583348""","39.034274"",",kansascity,MO
Wichita,,(316) 630-8484,"1423 N Webb Rd Wichita, KS 67206",https://www.wholefoodsmarket.com/stores/wichita,-97.2279290,37.70898391,wichita,KS
Olathe,,(913) 764-5656," 14615 W 119th St Olathe, KS 66062",https://www.wholefoodsmarket.com/stores/olathe,-94.7565743,38.91146412,olathe,KS
Overland Park,,(913) 663-2951,"11900 Metcalf Ave Overland Park, KS 66213",https://www.wholefoodsmarket.com/stores/overlandpark,"-94.66837""
","38.91208"",
",overlandpark,KS
Fayetteville,,(479) 695-5561,"3425 N College Ave Fayetteville, AR 72703",https://www.wholefoodsmarket.com/stores/fayetteville,"-94.1462""
 ","36.1136"",
 ",fayetteville,AR
Bowman,,(501) 312-2326,"501 S Bowman Rd Little Rock, AR 72211",https://www.wholefoodsmarket.com/stores/bowman,"-92.405594""","34.750282"",",bowman,AR
Louisville,,(502) 899-5545,"4944 Shelbyville Rd Louisville, KY 40207",https://www.wholefoodsmarket.com/stores/louisville,"-85.627028""","38.248506"",",louisville,KY
Lexington,,(859) 971-8600,"4059 Finn Way Lexington, KY 40517",https://www.wholefoodsmarket.com/stores/lexington,-84.5286159,"37.9775882""",lexington,KY
Shreveport,,(318) 462-9895,"1380 E 70th St Shreveport, LA 71105",https://www.wholefoodsmarket.com/stores/shreveport,-93.7269829,32.44396978,shreveport,LA
Ambassador Caffery,,(337) 314-9653,"4247 Ambassador Caffery Pkwy Lafayette, LA 70508",https://www.wholefoodsmarket.com/stores/ambassadorcaffery,-92.0519449,30.16090999,ambassadorcaffery,LA
Baton Rouge,,(225) 218-0452,"7529 Corporate Blvd Baton Rouge, LA 70809",https://www.wholefoodsmarket.com/stores/batonrouge,-91.1111936,30.43211493,batonrouge,LA
Mandeville,,(985) 231-3328,"3450 Hwy 190 Mandeville, LA 70471",https://www.wholefoodsmarket.com/stores/mandeville,-90.0858718,30.39053692,mandeville,LA
Veterans,,(504) 888-8225,"3420 Veterans Memorial Blvd Metairie, LA 70002",https://www.wholefoodsmarket.com/stores/vets,-90.1589726,30.00200103,vets,LA
Arabella Station,,(504) 899-9119,"5600 Magazine St New Orleans, LA 70115",https://www.wholefoodsmarket.com/stores/arabellastation,"-90.117495""","29.921124"",",arabellastation,LA
Broad Street,,(504) 434-3364,"300 N Broad St New Orleans, LA 70119",https://www.wholefoodsmarket.com/stores/broadstreet,"-90.084799""","29.9672"",
 ",broadstreet,LA
Hadley,,(413) 586-9932,"327 Russell St Hadley, MA 01035",https://www.wholefoodsmarket.com/stores/hadley,"-72.55537""
","42.353265"",",hadley,MA
Shrewsbury,,(508) 749-5520,"193 Boston Turnpike Shrewsbury, MA 01545",https://www.wholefoodsmarket.com/stores/shrewsbury,"-71.746577""","42.275403"",",shrewsbury,MA
Westford,,(978) 303-2900,"160 Littleton Rd Westford, MA 01886",https://www.wholefoodsmarket.com/stores/westford,"-71.420638""","42.567798"",",westford,MA
Sudbury,,(508) 358-7700,"536 Boston Post Rd Sudbury, MA 01776",https://www.wholefoodsmarket.com/stores/sudbury,"-71.4318""
 ","42.3612"",
 ",sudbury,MA
Framingham,,(508) 628-9525,"575 Worcester Rd Framingham, MA 01701",https://www.wholefoodsmarket.com/stores/framingham,"-71.421094""","42.298595"",",framingham,MA
Bellingham,,(508) 966-3331,"255 Hartford Ave Bellingham, MA 02019",https://www.wholefoodsmarket.com/stores/bellingham,"-71.461699""","42.111262"",",bellingham,MA
Bedford,,(781) 275-8264,"170 Great Rd Bedford, MA 01730",https://www.wholefoodsmarket.com/stores/bedford,"-71.273584""","42.491232"",",bedford,MA
Wellesley,,(781) 235-7262,"442 Washington St Wellesley, MA 02482",https://www.wholefoodsmarket.com/stores/wellesley,-71.2856093,42.30259091,wellesley,MA
Andover,,(978) 749-6664,"40 Railroad St Andover, MA 01810",https://www.wholefoodsmarket.com/stores/andover,"-71.144555""","42.66094"",
",andover,MA
Newtonville,,(617) 965-2070,"647 Washington St Newton, MA 02458",https://www.wholefoodsmarket.com/stores/newtonville,"-71.200137""","42.354128"",",newtonville,MA
Newton,,(617) 969-1141,"916 Walnut St Newton, MA 02461",https://www.wholefoodsmarket.com/stores/newton,"-71.206404""","42.330017"",",newton,MA
Woburn,,(781) 376-9600,"400 Cambridge Rd Woburn, MA 01801",https://www.wholefoodsmarket.com/stores/woburn,"-71.163527""","42.460479"",",woburn,MA
Arlington MA,,(781) 777-7200,"808 Massachusetts Ave Arlington, MA 02476",https://www.wholefoodsmarket.com/stores/arlington-ma,"-71.159388""","42.416395"",",arlington-ma,MA
Fresh Pond,,(617) 491-0040,"200 Alewife Brook Pkwy Cambridge, MA 02138",https://www.wholefoodsmarket.com/stores/freshpond,"-71.141721""","42.389065"",",freshpond,MA
Medford,,(781) 395-4998,"2151 Mystic Valley Pkwy Medford, MA 02155",https://www.wholefoodsmarket.com/stores/medford,"-71.126707""","42.417132"",",medford,MA
Dedham,,(781) 329-7100,"300 Legacy Pl Dedham, MA 02026",https://www.wholefoodsmarket.com/stores/dedham,-71.1778520,"42.2326354""",dedham,MA
Brighton,,(617) 738-8187,"15 Washington St Brighton, MA 02135",https://www.wholefoodsmarket.com/stores/brighton,"-71.140425""","42.342859"",",brighton,MA
River Street,,(617) 876-6990,"340 River St Cambridge, MA 02139",https://www.wholefoodsmarket.com/stores/riverstreet,"-71.114159""","42.361094"",",riverstreet,MA
Somerville,,(617) 902-9300,"45 Beacon St Somerville, MA 02143",https://www.wholefoodsmarket.com/stores/somerville,"-71.103179""","42.375849"",",somerville,MA
Prospect Street,,(617) 492-0070,"115 Prospect St Cambridge, MA 02139",https://www.wholefoodsmarket.com/stores/cambridge,"-71.102353""","42.368135"",",cambridge,MA
Jamaica Plain,,(617) 553-5400,"413 Centre St Jamaica Plain, MA 02130",https://www.wholefoodsmarket.com/stores/jamaicaplain,"-71.110961""","42.321389"",",jamaicaplain,MA
Melrose,,(781) 606-3400,"880 Main St Melrose, MA 02176",https://www.wholefoodsmarket.com/stores/melrose,"-71.062445""","42.464746"",",melrose,MA
Symphony,,(617) 375-1010,"15 Westland Ave Boston, MA 02115",https://www.wholefoodsmarket.com/stores/symphony,"-71.087272""","42.343962"",",symphony,MA
Lynnfield,,(781) 776-4300,"427 Walnut St Lynnfield, MA 01940",https://www.wholefoodsmarket.com/stores/lynnfield,-71.0322412,42.51418438,lynnfield,MA
Charlestown,,(617) 337-9700,"27 Austin St Charlestown, MA 02129",https://www.wholefoodsmarket.com/stores/charlestown,"-71.066334""","42.375645"",",charlestown,MA
Charles River Plaza,,(617) 723-0004,"181 Cambridge St Boston, MA 02114",https://www.wholefoodsmarket.com/stores/charlesriver,"-71.065447""","42.3619"",
 ",charlesriver,MA
South End,,(617) 904-1000,"348 Harrison Ave Boston, MA 02118",https://www.wholefoodsmarket.com/stores/southend,"-71.063018""","42.345462"",",southend,MA
Beverly,,(978) 529-9151,"150 Brimbal Ave Beverly, MA 01915",https://www.wholefoodsmarket.com/stores/beverly,"-70.87945""
","42.573537"",",beverly,MA
Swampscott,,(781) 592-2200,"331 Paradise Rd Swampscott, MA 01907",https://www.wholefoodsmarket.com/stores/swampscott,-70.9051068,42.47917769,swampscott,MA
South Weymouth,,(781) 277-5200,"35 Pleasant St South Weymouth, MA 02190",https://www.wholefoodsmarket.com/stores/southweymouth,-70.9535799,42.17207393,southweymouth,MA
Hingham,,(781) 741-8050,"94 Derby St Hingham, MA 02043",https://www.wholefoodsmarket.com/stores/hingham,-70.9078461,42.17894401,hingham,MA
Hyannis,,(508) 418-5900,"990 Iyannough Rd Hyannis, MA 02601",https://www.wholefoodsmarket.com/stores/hyannis,"-70.301776""","41.672393"",",hyannis,MA
Kentlands,,(301) 258-9500,"316 Kentlands Blvd Gaithersburg, MD 20878",https://www.wholefoodsmarket.com/stores/kentlands,"-77.237729""","39.122641"",",kentlands,MD
Rockville,,(301) 984-4880,"11355 Woodglen Dr Rockville, MD 20852",https://www.wholefoodsmarket.com/stores/rockville,"-77.112956""","39.042978"",",rockville,MD
Bethesda,,(301) 984-4860,"5269 River Rd Bethesda, MD 20816",https://www.wholefoodsmarket.com/stores/bethesda,"-77.104163""","38.966156"",",bethesda,MD
Friendship Heights,,(301) 657-1520,"4420 Willard Ave Chevy Chase, MD 20815",https://www.wholefoodsmarket.com/stores/friendshipheights,"-77.086646""","38.960896"",",friendshipheights,MD
Silver Spring,,(301) 608-9373,"833 Wayne Ave Silver Spring, MD 20910",https://www.wholefoodsmarket.com/stores/silverspring,"-77.024091""","38.996059"",",silverspring,MD
Riverdale Park,,(240) 487-7575,"6621-B Baltimore Ave Riverdale, MD 20737",https://www.wholefoodsmarket.com/stores/riverdalepark,"-76.936683""","38.969186"",",riverdalepark,MD
Columbia - Maryland,,(240) 865-1827,"10275 Little Patuxent Pkwy Columbia, MD 21044",https://www.wholefoodsmarket.com/stores/columbia-md,"-76.855891""","39.213938"",",columbia-md,MD
Mt. Washington,,(410) 532-6700,"1330 Smith Ave Baltimore, MD 21209",https://www.wholefoodsmarket.com/stores/mountwashington,"-76.649505""","39.368299"",",mountwashington,MD
Towson,,(443) 652-6566,"300 Towson Row Towson, MD 21204",https://www.wholefoodsmarket.com/stores/towson,-76.6038793,39.39916178,towson,MD
Harbor East,,(410) 528-1640,"711 S Central Ave Baltimore, MD 21202",https://www.wholefoodsmarket.com/stores/harboreast,"-76.5985""
 ","39.2829"",
 ",harboreast,MD
Annapolis,,(410) 573-1800,"200 Harker Pl Annapolis, MD 21401",https://www.wholefoodsmarket.com/stores/annapolis,-76.5401845,"38.982091"",",annapolis,MD
Portland - Maine,,(207) 774-7711,"2 Somerset St Portland, ME 04101",https://www.wholefoodsmarket.com/stores/portland-me,"-70.258754""","43.663298"",",portland-me,ME
Grand Rapids,,(616) 226-8880,"2897 Radcliff Ave SE Kentwood, MI 49512",https://www.wholefoodsmarket.com/stores/grandrapids,"-85.592794""","42.911088"",",grandrapids,MI
East Lansing,,(517) 319-2000,"2750 E Grand River Ave East Lansing, MI 48823",https://www.wholefoodsmarket.com/stores/eastlansing,"-84.453004""","42.728207"",",eastlansing,MI
Cranbrook,,(734) 997-7500,"990 W Eisenhower Pkwy Ann Arbor, MI 48103",https://www.wholefoodsmarket.com/stores/cranbrook,"-83.758168""","42.248543"",",cranbrook,MI
Ann Arbor,,(734) 975-4500,"3135 Washtenaw Ave Ann Arbor, MI 48104",https://www.wholefoodsmarket.com/stores/annarbor,"-83.698198""","42.258059"",",annarbor,MI
West Bloomfield,,(248) 538-4600,"7350 Orchard Lake Rd West Bloomfield, MI 48322",https://www.wholefoodsmarket.com/stores/westbloomfield,-83.3628606,42.52924144,westbloomfield,MI
Rochester Hills,,(248) 371-1400,"2918 Walton Blvd Rochester Hills, MI 48309",https://www.wholefoodsmarket.com/stores/rochesterhills,"-83.191685""","42.68214"",
",rochesterhills,MI
Birmingham,,(248) 649-9600,"2100 E Maple Rd Birmingham, MI 48009",https://www.wholefoodsmarket.com/stores/birminghammi,"-83.194466""","42.546736"",",birminghammi,MI
Detroit,,(313) 576-5300,"115 Mack Ave Detroit, MI 48201",https://www.wholefoodsmarket.com/stores/detroit,-83.0566813,42.34849281,detroit,MI
Minnetonka,,(952) 797-5600,"1001 Plymouth Rd Minnetonka, MN 55305",https://www.wholefoodsmarket.com/stores/minnetonka,"-93.44569""
","44.973958"",",minnetonka,MN
Maple Grove,,(763) 416-7300,"12201 Elm Creek Blvd N Maple Grove, MN 55369",https://www.wholefoodsmarket.com/stores/maplegrove,"-93.435945""","45.091528"",",maplegrove,MN
Edina,,(952) 830-3500,"7401 France Ave S Edina, MN 55435",https://www.wholefoodsmarket.com/stores/edina,"-93.328011""","44.867687"",",edina,MN
Uptown Minneapolis,,(612) 927-8141,"3060 Excelsior Blvd Minneapolis, MN 55416",https://www.wholefoodsmarket.com/stores/uptownminneapolis,"-93.322363""","44.947565"",",uptownminneapolis,MN
Hennepin,,(612) 313-7100,"222 Hennepin Ave Minneapolis, MN 55401",https://www.wholefoodsmarket.com/stores/hennepin,"-93.269054""","44.982511"",",hennepin,MN
St Paul,,(651) 690-0197,"1575 Selby Ave St. Paul, MN 55104",https://www.wholefoodsmarket.com/stores/stpaul,"-93.166733""","44.946689"",",stpaul,MN
Woodbury,,(651) 252-3060,"305 Radio Dr Woodbury, MN 55125",https://www.wholefoodsmarket.com/stores/woodbury,-92.9304282,44.94313312,woodbury,MN
Kansas City,,(816) 708-3700,"301 E 51st St Kansas City, MO 64112",https://www.wholefoodsmarket.com/stores/kansascity,"-94.583348""","39.034274"",",kansascity,MO
Town and Country,,(636) 527-1160,"1160 Town and Country Crossing Dr Town and Country, MO 63017",https://www.wholefoodsmarket.com/stores/townandcountry,"-90.515871""","38.622092"",",townandcountry,MO
Galleria,,(314) 968-7744,"1601 S Brentwood Blvd St. Louis, MO 63144",https://www.wholefoodsmarket.com/stores/st-louis,-90.3477179,"38.6270529""",st-louis,MO
Central West End,,(314) 474-7300,"4577 W Pine Blvd St. Louis, MO 63108",https://www.wholefoodsmarket.com/stores/centralwestend,-90.2616549,38.64198815,centralwestend,MO
Jackson,,(601) 608-0405,"4500 I-55 North Jackson, MS 39211",https://www.wholefoodsmarket.com/stores/jkn,"-90.149828""","32.354698"",",jkn,MS
Montana Avenue,,(310) 576-4707,"1425 Montana Ave Santa Monica, CA 90403",https://www.wholefoodsmarket.com/stores/montanaave,"-118.4947""
","34.0328"",
 ",montanaave,CA
Bozeman,,(406) 602-8249,"2905 West Main Street Bozeman, MT 59718",https://www.wholefoodsmarket.com/stores/bozeman,-111.078791,"45.6717943""",bozeman,MT
Asheville,,(828) 254-5440,"70 Merrimon Ave Asheville, NC 28801",https://www.wholefoodsmarket.com/stores/asheville,"-82.554715""","35.601892"",",asheville,NC
East Asheville,,(828) 239-9604,"4 S Tunnel Rd Asheville, NC 28805",https://www.wholefoodsmarket.com/stores/eastasheville,-82.5231238,35.58238676,eastasheville,NC
South Asheville,,(828) 378-0477,"1856 Hendersonville Rd Asheville, NC 28803",https://www.wholefoodsmarket.com/stores/southasheville,"-82.521395""","35.501038"",",southasheville,NC
Lake Norman,,(704) 765-3735,"9129 Sam Furr Rd Huntersville, NC 28078",https://www.wholefoodsmarket.com/stores/lakenorman,"-80.871661""","35.444104"",",lakenorman,NC
Uptown Charlotte,,(704) 969-5950,"400 East Brooklyn Village Ave Charlotte, NC 28202",https://www.wholefoodsmarket.com/stores/uptowncharlotte,"-80.8465""
 ","35.2212"",
 ",uptowncharlotte,NC
Charlotte,,(980) 213-2400,"6610 Fairview Rd Charlotte, NC 28210",https://www.wholefoodsmarket.com/stores/charlotte,"-80.830176""","35.147279"",",charlotte,NC
Waverly,,(704) 949-1860,"7221 Waverly Walk Ave Charlotte, NC 28277",https://www.wholefoodsmarket.com/stores/waverly,-80.7673172,35.05322873,waverly,NC
Winston-Salem,,(336) 722-9233,"41 Miller St Winston-Salem, NC 27104",https://www.wholefoodsmarket.com/stores/winston-salem,"-80.273814""","36.09418"",
",winston-salem,NC
Greensboro Friendly,,(336) 398-2880,"3202 W Friendly Ave Greensboro, NC 27408",https://www.wholefoodsmarket.com/stores/greensborofriendly,"-79.834028""","36.085624"",",greensborofriendly,NC
Chapel Hill,,(919) 968-1983,"81 S Elliot Rd Chapel Hill, NC 27514",https://www.wholefoodsmarket.com/stores/chapelhill,"-79.027569""","35.934529"",",chapelhill,NC
Durham,,(919) 286-2290,"621 Broad St Durham, NC 27705",https://www.wholefoodsmarket.com/stores/durham,"-78.920644""","36.007046"",",durham,NC
West Cary,,(984) 228-0300,"5055 Arco St Cary, NC 27519",https://www.wholefoodsmarket.com/stores/westcary,"-78.882466""","35.833593"",",westcary,NC
Cary,,(919) 816-8830,"102B New Waverly Pl Cary, NC 27518",https://www.wholefoodsmarket.com/stores/cary,"-78.777234""","35.737361"",",cary,NC
North Raleigh,,(919) 354-0350,"8710 Six Forks Rd Raleigh, NC 27615",https://www.wholefoodsmarket.com/stores/northraleigh,-78.6505492,35.89927263,northraleigh,NC
Raleigh,,(919) 828-5805,"3540 Wade Ave Raleigh, NC 27607",https://www.wholefoodsmarket.com/stores/raleigh,"-78.686355""","35.802456"",",raleigh,NC
Wilmington,,(910) 777-2499,"3804 Oleander Dr Wilmington, NC 28403",https://www.wholefoodsmarket.com/stores/wilmington,"-77.900814""","34.213686"",",wilmington,NC
Lincoln,,(402) 486-6000,"6055 O St Lincoln, NE 68510",https://www.wholefoodsmarket.com/stores/lincoln,"-96.638998""","40.81291"",
",lincoln,NE
Omaha,,(402) 393-1200,"10020 Regency Cir Omaha, NE 68114",https://www.wholefoodsmarket.com/stores/omaha,"-96.068483""","41.261903"",",omaha,NE
Bedford New Hampshire,,(603) 218-1900,"121 S River Rd Bedford, NH 03110",https://www.wholefoodsmarket.com/stores/bedfordnewhampshire,-71.4765399,42.95464618,bedfordnewhampshire,NH
Nashua,,(603) 318-7550,"255 Amherst St Nashua, NH 03063",https://www.wholefoodsmarket.com/stores/nashua,"-71.496514""","42.77957"",
",nashua,NH
Portsmouth,,(603) 294-1115,"1600 Woodbury Ave Portsmouth, NH 03801",https://www.wholefoodsmarket.com/stores/portsmouth,"-70.793659""","43.089217"",",portsmouth,NH
Cherry Hill,,(856) 651-5271,"1558 Kings Hwy N Cherry Hill, NJ 08034",https://www.wholefoodsmarket.com/stores/cherryhill,-75.0113844,39.91587751,cherryhill,NJ
Marlton,,(856) 797-1115,"940 Rt 73 N Marlton, NJ 08053",https://www.wholefoodsmarket.com/stores/marlton,"-74.937997""","39.908072"",",marlton,NJ
Princeton,,(609) 799-2919,"3495 US Rt 1 S Princeton, NJ 08540",https://www.wholefoodsmarket.com/stores/princeton,"-74.668208""","40.308146"",",princeton,NJ
Bridgewater,,(732) 584-1960,"319 Chimney Rock Rd Bound Brook, NJ 08805",https://www.wholefoodsmarket.com/stores/bridgewater,"-74.562346""","40.576239"",",bridgewater,NJ
Morristown,,(973) 385-1900,"110 Washington St Morristown, NJ 07960",https://www.wholefoodsmarket.com/stores/morristown,"-74.488784""","40.799238"",",morristown,NJ
Parsippany,,(862) 286-2777,"60 Waterview Blvd Parsippany, NJ 07054",https://www.wholefoodsmarket.com/stores/parsippany,"-74.431896""","40.875332"",",parsippany,NJ
Rose City,,(973) 822-8444,"222 Main St Madison, NJ 07940",https://www.wholefoodsmarket.com/stores/madisonnj,"-74.405429""","40.753479"",",madisonnj,NJ
Metuchen,,(732) 515-6180,"645 Middlesex Ave Metuchen, NJ 08840",https://www.wholefoodsmarket.com/stores/metuchen,"-74.366""
  ","40.5398"",
 ",metuchen,NJ
Wayne,,(973) 587-1470,"560 Valley Rd Wayne, NJ 07470",https://www.wholefoodsmarket.com/stores/wayne,"-74.226614""","40.930789"",",wayne,NJ
Millburn - Union,,(908) 688-1455,"2245 Springfield Ave Vauxhall, NJ 07088",https://www.wholefoodsmarket.com/stores/millburn,-74.2868261,40.71703832,millburn,NJ
Clark,,(732) 381-1010,"1255 Raritan Rd Clark, NJ 07066",https://www.wholefoodsmarket.com/stores/clark,-74.3042661,40.63152359,clark,NJ
West Orange,,(973) 669-3196,"235 Prospect Ave West Orange, NJ 07052",https://www.wholefoodsmarket.com/stores/westorange,"-74.248906""","40.804218"",",westorange,NJ
Montclair,,(973) 746-5110,"701 Bloomfield Ave Montclair, NJ 07042",https://www.wholefoodsmarket.com/stores/montclair,"-74.223046""","40.818472"",",montclair,NJ
Marlboro,,(732) 792-5900,"113 Route 9 South Marlboro, NJ 07726",https://www.wholefoodsmarket.com/stores/marlboro,-74.3093220,40.35191499,marlboro,NJ
Ridgewood,,(201) 670-0383,"44 Godwin Ave Ridgewood, NJ 07450",https://www.wholefoodsmarket.com/stores/ridgewood,"-74.122564""","40.978372"",",ridgewood,NJ
Newark,,(973) 755-5080,"633 Broad St Newark, NJ 07102",https://www.wholefoodsmarket.com/stores/newark,"-74.17011""
","40.740059"",",newark,NJ
Woodcliff Lake,,(551) 249-2595,"500 Chestnut Ridge Road Woodcliff Lake, NJ 07677",https://www.wholefoodsmarket.com/stores/woodclifflake,-74.0714826,41.04283551,woodclifflake,NJ
Paramus,,(201) 226-1244,"300 Bergen Town Center Paramus, NJ 07652",https://www.wholefoodsmarket.com/stores/paramus,-74.0573452,40.91384342,paramus,NJ
Jersey City,,(201) 885-5388,"135 Greene St. Jersey City, NJ 07311",https://www.wholefoodsmarket.com/stores/jerseycity,"-74.03715""
","40.71789"",
",jerseycity,NJ
Weehawken,,(551) 300-6080,"1400 Waterfront Terrace Weehawken, NJ 07086",https://www.wholefoodsmarket.com/stores/weehawken,"-74.022937""","40.761809"",",weehawken,NJ
Closter,,(201) 367-9099,"45 Vervalen St Closter, NJ 07624",https://www.wholefoodsmarket.com/stores/closter,-73.9563445,40.97068755,closter,NJ
Edgewater,,(201) 941-4000,"905 River Rd Edgewater, NJ 07020",https://www.wholefoodsmarket.com/stores/edgewater,"-73.973742""","40.824835"",",edgewater,NJ
Middletown,,(732) 758-1688,"471 St Rt 35 N Red Bank, NJ 07701",https://www.wholefoodsmarket.com/stores/middletown,"-74.087337""","40.375373"",",middletown,NJ
Spring Lake Wall,,(732) 359-3400,"1933 NJ-35 Wall, NJ 07719",https://www.wholefoodsmarket.com/stores/springlakewall,"-74.056864""","40.154645"",",springlakewall,NJ
Albuquerque,,(505) 260-1366,"2100 Carlisle Blvd NE Albuquerque, NM 87110",https://www.wholefoodsmarket.com/stores/albuquerque,-106.602808,"35.10267"",
",albuquerque,NM
Academy,,(505) 856-0474,"5815 Wyoming Blvd NE Albuquerque, NM 87109",https://www.wholefoodsmarket.com/stores/academy,-106.556026,"35.146488"",",academy,NM
Santa Fe (Cerrillos),,(505) 992-1700,"753 Cerrillos Rd Santa Fe, NM 87505",https://www.wholefoodsmarket.com/stores/cerrillos,-105.950174,"35.678896"",",cerrillos,NM
Reno,,(775) 852-8023,"6139 S Virginia St Reno, NV 89502",https://www.wholefoodsmarket.com/stores/reno,-119.786877,39.46884037,reno,NV
Fort Apache,,(702) 254-8655,"8855 W Charleston Blvd Las Vegas, NV 89117",https://www.wholefoodsmarket.com/stores/fortapache,-115.288182,"36.1577904""",fortapache,NV
Tenaya,,(702) 942-1500," 7250 W Lake Mead Blvd Las Vegas, NV 89128",https://www.wholefoodsmarket.com/stores/tenaya,-115.250074,"36.19757"",
",tenaya,NV
Las Vegas Blvd,,(702) 589-7711,"6689 Las Vegas Blvd Las Vegas, NV 89119",https://www.wholefoodsmarket.com/stores/lvb,-115.174384,36.06744919,lvb,NV
Henderson,,(702) 361-8183,"100 S Green Valley Pkwy Henderson, NV 89012",https://www.wholefoodsmarket.com/stores/henderson,-115.082541,36.02327222,henderson,NV
Tribeca,,(212) 349-6555,"270 Greenwich St New York, NY 10007",https://www.wholefoodsmarket.com/stores/tribeca,"-74.011563""","40.715619"",",tribeca,NY
Manhattan West,,(646) 540-1104,"450 W 33rd St New York, NY 10001",https://www.wholefoodsmarket.com/stores/manhattanwest,"-73.999959""","40.752762"",",manhattanwest,NY
One Wall Street,,(646) 779-8229,"66 Broadway New York, NY 10005",https://www.wholefoodsmarket.com/stores/onewallstreet,"-74.0122""
 ","40.70705"",
",onewallstreet,NY
Chelsea,,(212) 924-5969,"250 7th Ave New York, NY 10001",https://www.wholefoodsmarket.com/stores/chelsea,"-73.995347""","40.745113"",",chelsea,NY
Columbus Circle,,(212) 823-9600,"10 Columbus Cir New York, NY 10019",https://www.wholefoodsmarket.com/stores/columbuscircle,"-73.983007""","40.767879"",",columbuscircle,NY
Union Square,,(212) 673-5388,"4 Union Square S New York, NY 10003",https://www.wholefoodsmarket.com/stores/unionsquare,"-73.991243""","40.734741"",",unionsquare,NY
Bryant Park,,(917) 728-5700,"1095 6th Ave New York, NY 10036",https://www.wholefoodsmarket.com/stores/bryantpark,"-73.984832""","40.754632"",",bryantpark,NY
Bowery,,(212) 420-1320,"95 East Houston St New York, NY 10002",https://www.wholefoodsmarket.com/stores/bowery,"-73.992409""","40.723779"",",bowery,NY
NoMad,,(646) 779-2848,"63 Madison Ave New York, NY 10016",https://www.wholefoodsmarket.com/stores/nomad,-73.9855271,40.74369137,nomad,NY
Upper West Side,,(212) 222-6160,"808 Columbus Ave New York, NY 10025",https://www.wholefoodsmarket.com/stores/upperwestside,"-73.9668""
 ","40.79417"",
",upperwestside,NY
Midtown East (E 57th St),,(646) 497-1222,"226 E 57th St New York, NY 10022",https://www.wholefoodsmarket.com/stores/midtown-east,"-73.966348""","40.75958"",
",midtown-east,NY
Harlem,,(212) 678-1940,"100 W 125th St New York, NY 10027",https://www.wholefoodsmarket.com/stores/harlem,"-73.946138""","40.807597"",",harlem,NY
Upper East Side,,(646) 891-3888,"1551 3rd Ave New York, NY 10128",https://www.wholefoodsmarket.com/stores/uppereastside,"-73.95295""
","40.779742"",",uppereastside,NY
Buffalo,,(716) 398-4502,"3139 Sheridan Dr Amherst, NY 14226",https://www.wholefoodsmarket.com/stores/buffalo,"-78.816984""","42.979048"",",buffalo,NY
Rochester,,(585) 895-7750,"2740 Monroe Ave Rochester, NY 14618",https://www.wholefoodsmarket.com/stores/rochester,"-77.550309""","43.114125"",",rochester,NY
Albany,,(518) 621-5300,"1425 Central Ave Albany, NY 12205",https://www.wholefoodsmarket.com/stores/albany,-73.8188848,"42.7089555""",albany,NY
Industry City,,,"167 41st St Brooklyn, NY 11232",https://www.wholefoodsmarket.com/stores/industrycity,"-74.011742""","40.654445"",",industrycity,NY
Third and 3rd (Brooklyn),,(718) 907-3622,"214 3rd St  Brooklyn, NY 11215",https://www.wholefoodsmarket.com/stores/thirdand3rd,"-73.988853""","40.675028"",",thirdand3rd,NY
Fort Greene,,(718) 290-1010,"292 Ashland Pl Brooklyn, NY 11217",https://www.wholefoodsmarket.com/stores/fortgreene,"-73.97841""
","40.686609"",",fortgreene,NY
Williamsburg,,(718) 734-2321,"238 Bedford Ave Brooklyn, NY 11249",https://www.wholefoodsmarket.com/stores/williamsburg,"-73.959802""","40.716168"",",williamsburg,NY
Yonkers,,(914) 378-8090,"1 Ridge Hill Blvd Yonkers, NY 10710",https://www.wholefoodsmarket.com/stores/yonkers,-73.8564969,40.96171562,yonkers,NY
Chappaqua,,(914) 340-5130,"20 The Crossing Chappaqua, NY 10514",https://www.wholefoodsmarket.com/stores/chappaqua,"-73.75497""
","41.177948"",",chappaqua,NY
White Plains,,(914) 288-1300,"110 Bloomingdale Rd White Plains, NY 10605",https://www.wholefoodsmarket.com/stores/whiteplains,"-73.758904""","41.028294"",",whiteplains,NY
Port Chester,,(914) 708-1985,"575 Boston Post Road Port Chester, NY 10573",https://www.wholefoodsmarket.com/stores/portchester,-73.6754537,40.99254119,portchester,NY
Manhasset,,(516) 869-8900,"2101 Northern Blvd Manhasset, NY 11030",https://www.wholefoodsmarket.com/stores/manhasset,"-73.670765""","40.797214"",",manhasset,NY
Westbury,,(516) 540-3040,"867 East Gate Blvd Garden City, NY 11530",https://www.wholefoodsmarket.com/stores/westbury,"-73.60778""
","40.7428"",
 ",westbury,NY
Jericho,,(516) 932-1733,"429 North Broadway Jericho, NY 11753",https://www.wholefoodsmarket.com/stores/jericho,"-73.534703""","40.788943"",",jericho,NY
Massapequa,,(516) 366-3616,"5214 Sunrise Hwy Massapequa Park, NY 11762",https://www.wholefoodsmarket.com/stores/massapequa,"-73.443629""","40.675976"",",massapequa,NY
Commack,,(631) 670-0580,"120 Veterans Memorial Hwy #34 Commack, NY 11725",https://www.wholefoodsmarket.com/stores/commack,"-73.284123""","40.838117"",",commack,NY
Lake Grove,,(631) 588-1466,"120 New Moriches Rd Lake Grove, NY 11755",https://www.wholefoodsmarket.com/stores/lakegrove,"-73.12585""
","40.869705"",",lakegrove,NY
Cincinnati,,(513) 531-8015,"2693 Edmondson Rd Cincinnati, OH 45209",https://www.wholefoodsmarket.com/stores/cincinnati,"-84.447324""","39.14547"",
",cincinnati,OH
Kenwood,,(513) 699-7710,"5901 E Galbraith Rd Cincinnati, OH 45236",https://www.wholefoodsmarket.com/stores/kenwood,"-84.373899""","39.205289"",",kenwood,OH
Mason,,(513) 398-9358,"5805 Deerfield Blvd Mason, OH 45040",https://www.wholefoodsmarket.com/stores/mason,-84.3165860,39.30760702,mason,OH
Dayton,,(937) 999-6880,"1050 Miamisburg Centerville Rd Dayton, OH 45458",https://www.wholefoodsmarket.com/stores/dayton,"-84.190303""","39.626787"",",dayton,OH
Columbus,,(614) 760-5556,"3670 W Dublin-Granville Rd Columbus, OH 43235",https://www.wholefoodsmarket.com/stores/dublin,"-83.086634""","40.098628"",",dublin,OH
Upper Arlington,,(614) 481-3400,"1555 W Lane Ave Upper Arlington, OH 43221",https://www.wholefoodsmarket.com/stores/upperarlington,-83.0526234,40.00659508,upperarlington,OH
Easton,,(614) 536-0570,"4100 Easton Gateway Dr Columbus, OH 43219",https://www.wholefoodsmarket.com/stores/easton,"-82.909634""","40.056875"",",easton,OH
Rocky River,,(440) 596-3440,"19607 Detroit Rd Rocky River, OH 44116",https://www.wholefoodsmarket.com/stores/rockyriver,"-81.840031""","41.478792"",",rockyriver,OH
Cedar Center,,(216) 932-3918,"13998 Cedar Rd University Heights, OH 44118",https://www.wholefoodsmarket.com/stores/cleveland,-81.5367333,"41.5008555""",cleveland,OH
Akron,,(330) 615-2100,"1745 W Market St Akron, OH 44313",https://www.wholefoodsmarket.com/stores/akron,"-81.571348""","41.110953"",",akron,OH
Orange Village,,(216) 464-9403,"50 Wall St Orange, OH 44122",https://www.wholefoodsmarket.com/stores/orangevillage,"-81.484869""","41.45009"",
",orangevillage,OH
Oklahoma City,,(405) 879-3500,"6001 North Western Ave Oklahoma City, OK 73118",https://www.wholefoodsmarket.com/stores/oklahomacity,"-97.530387""","35.534037"",",oklahomacity,OK
Brookside,,(918) 712-7555,"1401 E 41st St Tulsa, OK 74105",https://www.wholefoodsmarket.com/stores/brookside,"-95.97313""
","36.104769"",",brookside,OK
Yale,,(918) 879-0493,"9136 S Yale Ave Tulsa, OK 74137",https://www.wholefoodsmarket.com/stores/yale,-95.9233731,36.03065852,yale,OK
Bend,,(541) 389-0151,"2610 NE Hwy 20 Bend, OR 97701",https://www.wholefoodsmarket.com/stores/bend,-121.265962,"44.056252"",",bend,OR
Eugene,,(541) 434-8820,"353 E Broadway Eugene, OR 97401",https://www.wholefoodsmarket.com/stores/eugene,-123.087863,"44.050111"",",eugene,OR
Bridgeport,,(503) 639-6500,"7380 SW Bridgeport Rd Tigard, OR 97224",https://www.wholefoodsmarket.com/stores/tigard,-122.751583,"45.394432"",",tigard,OR
Lake Oswego,,(503) 782-4672,"11 S State St Lake Oswego, OR 97034",https://www.wholefoodsmarket.com/stores/lakeoswego,-122.662240,45.41577625,lakeoswego,OR
Greenway,,(971) 371-7000,"12220 SW Scholls Ferry Rd Tigard, OR 97223",https://www.wholefoodsmarket.com/stores/greenway,-122.801781,"45.442495"",",greenway,OR
Laurelhurst,,(503) 232-6601,"2825 East Burnside St Portland, OR 97214",https://www.wholefoodsmarket.com/stores/laurelhurst,"-122.63672""","45.523118"",",laurelhurst,OR
Pearl District Portland,,(503) 525-4343,"1210 NW Couch St Portland, OR 97209",https://www.wholefoodsmarket.com/stores/pearl,-122.683434,"45.523508"",",pearl,OR
Hollywood,,(503) 284-2644,"4301 NE Sandy Blvd Portland, OR 97213",https://www.wholefoodsmarket.com/stores/sandy,"-122.61867""","45.536961"",",sandy,OR
Fremont - Oregon,,(503) 288-3414,"3535 NE 15th Ave Portland, OR 97212",https://www.wholefoodsmarket.com/stores/fremont,-122.651114,"45.54906"",
",fremont,OR
Tanasbourne,,(503) 645-9200,"9940 NE Cornell Rd Hillsboro, OR 97124",https://www.wholefoodsmarket.com/stores/tanasbourne,-122.877102,45.53377558,tanasbourne,OR
Wexford,,(724) 940-6100,"10576 Perry Hwy Wexford, PA 15090",https://www.wholefoodsmarket.com/stores/wexford,-80.0528753,40.61225173,wexford,PA
South Hills,,(412) 409-4550,"111 Siena Dr Upper St. Clair, PA 15241",https://www.wholefoodsmarket.com/stores/southhills,-80.0581304,40.34603161,southhills,PA
East Liberty,,(412) 441-7960,"5700 Penn Ave Pittsburgh, PA 15206",https://www.wholefoodsmarket.com/stores/eastliberty,"-79.9286""
 ","40.4622"",
 ",eastliberty,PA
Lancaster,,(717) 984-5700,"1563 Fruitville Pike Lancaster, PA 17601",https://www.wholefoodsmarket.com/stores/lancaster,"-76.313169""","40.065349"",",lancaster,PA
Allentown,,(484) 506-2159,"750 N Krocks Rd Allentown, PA 18106",https://www.wholefoodsmarket.com/stores/allentown,-75.5668647,40.56440567,allentown,PA
Exton,,(610) 423-6360,"175 N Pottstown Pike Exton, PA 19341",https://www.wholefoodsmarket.com/stores/exton,"-75.627998""","40.0303"",
 ",exton,PA
Glen Mills,,(610) 358-1133,"475 Wilmington West Chester Pike Glen Mills, PA 19342",https://www.wholefoodsmarket.com/stores/glenmills,-75.5430707,39.86349887,glenmills,PA
Devon,,(610) 688-9400,"821 Lancaster Ave Wayne, PA 19087",https://www.wholefoodsmarket.com/stores/devon,"-75.411115""","40.048876"",",devon,PA
Newtown,,(610) 848-7200,"3737 West Chester Pike Newtown Square, PA 19073",https://www.wholefoodsmarket.com/stores/newtown,"-75.403903""","39.987825"",",newtown,PA
Plymouth Meeting,,(610) 832-0010,"500 W Germantown Pike Plymouth Meeting, PA 19462",https://www.wholefoodsmarket.com/stores/plymouthmeeting,-75.2811086,40.11418192,plymouthmeeting,PA
Spring House,,(215) 646-6300,"1111 N Bethlehem Pike Spring House, PA 19477",https://www.wholefoodsmarket.com/stores/springhouse,"-75.227542""","40.188211"",",springhouse,PA
Wynnewood,,(610) 896-3737,"15 E Wynnewood Rd Wynnewood, PA 19096",https://www.wholefoodsmarket.com/stores/wynnewood,-75.2755867,"40.0019522""",wynnewood,PA
Philly Center City,,(215) 557-0015,"2101 Pennsylvania Ave Philadelphia, PA 19130",https://www.wholefoodsmarket.com/stores/phillycentercity,"-75.174306""","39.963185"",",phillycentercity,PA
Jenkintown,,(215) 481-0800,"1575 The Fairway Jenkintown, PA 19046",https://www.wholefoodsmarket.com/stores/jenkintown,"-75.116061""","40.107871"",",jenkintown,PA
South Street,,(215) 733-9788,"929 South St Philadelphia, PA 19147",https://www.wholefoodsmarket.com/stores/southstreet,"-75.157883""","39.942897"",",southstreet,PA
Garden City Center,,(401) 942-7600,"151 Sockanosset Cross Rd Cranston, RI 02920",https://www.wholefoodsmarket.com/stores/cranston,"-71.456046""","41.755906"",",cranston,RI
University,,(401) 621-5990,"601 N Main St Providence, RI 02904",https://www.wholefoodsmarket.com/stores/university,"-71.408307""","41.83714"",
",university,RI
Providence,,(401) 272-1690,"261 Waterman St Providence, RI 02906",https://www.wholefoodsmarket.com/stores/providence,"-71.386189""","41.827787"",",providence,RI
South Asheville,,(828) 378-0477,"1856 Hendersonville Rd Asheville, NC 28803",https://www.wholefoodsmarket.com/stores/southasheville,"-82.521395""","35.501038"",",southasheville,NC
Greenville,,(864) 335-2300,"1140 Woodruff Rd Greenville, SC 29607",https://www.wholefoodsmarket.com/stores/greenville,"-82.300837""","34.825521"",",greenville,SC
Columbia,,(803) 509-6700,"702 Cross Hill Rd Columbia, SC 29205",https://www.wholefoodsmarket.com/stores/columbia,"-80.975304""","33.9931"",
 ",columbia,SC
Hilton Head Island,,(843) 842-0700,"50 Shelter Cove Ln Hilton Head Island, SC 29928",https://www.wholefoodsmarket.com/stores/hiltonheadisland,"-80.716653""","32.187478"",",hiltonheadisland,SC
West Ashley,,(843) 329-6540,"1125 Savannah Hwy Charleston, SC 29407",https://www.wholefoodsmarket.com/stores/westashley,"-79.996381""","32.782649"",",westashley,SC
Charleston,,(843) 971-7240,"923 Houston Northcutt Blvd Mount Pleasant, SC 29464",https://www.wholefoodsmarket.com/stores/charleston,"-79.889113""","32.802162"",",charleston,SC
Poplar Avenue,,(901) 969-4368,"5014 Poplar Ave Memphis, TN 38117",https://www.wholefoodsmarket.com/stores/poplaravenue,"-89.894177""","35.113149"",",poplaravenue,TN
Germantown,,(901) 896-3245,"7825 US Highway 72 Germantown, TN 38138",https://www.wholefoodsmarket.com/stores/germantown,-89.8021244,35.08906383,germantown,TN
Green Hills,,(615) 440-5100,"4021 Hillsboro Pike Nashville, TN 37215",https://www.wholefoodsmarket.com/stores/greenhills,"-86.8185""
 ","36.103133"",",greenhills,TN
Nashville Downtown,,(615) 747-1650,"1202 Broadway Nashville, TN 37203",https://www.wholefoodsmarket.com/stores/nashvilledowntown,"-86.7886""
 ","36.1563"",
 ",nashvilledowntown,TN
McEwen,,(615) 550-5660,"1566 W McEwen Dr Franklin, TN 37067",https://www.wholefoodsmarket.com/stores/mcewen,"-86.824652""","35.934445"",",mcewen,TN
Chattanooga,,(423) 702-7300,"301 Manufacturers Rd Chattanooga, TN 37405",https://www.wholefoodsmarket.com/stores/chattanooga,-85.3143733,35.06336956,chattanooga,TN
Chattanooga East,,(423) 425-9133,"1814 Gunbarrel Rd Chattanooga, TN 37421",https://www.wholefoodsmarket.com/stores/chattanoogaeast,"-85.156119""","35.023851"",",chattanoogaeast,TN
Knoxville,,(865) 291-6400,"6730 Papermill Dr NW Knoxville, TN 37919",https://www.wholefoodsmarket.com/stores/knoxville,"-84.01555""
","35.933145"",",knoxville,TN
El Paso,,(915) 236-1420,"100 Pitt St El Paso, TX 79912",https://www.wholefoodsmarket.com/stores/elpaso,-106.548039,"31.834063"",",elpaso,TX
Fort Worth,,(682) 316-8040,"3720 Vision Dr Fort Worth, TX 76109",https://www.wholefoodsmarket.com/stores/fortworth,"-97.41296""
","32.700021"",",fortworth,TX
Highland Village,,(972) 538-9710,"4041 Waller Creek Highland Village, TX 75077",https://www.wholefoodsmarket.com/stores/highlandvillage,"-97.084357""","33.072621"",",highlandvillage,TX
Colleyville,,(817) 918-3821,"4801 Colleyvile Blvd Colleyville, TX 76034",https://www.wholefoodsmarket.com/stores/colleyville,"-97.155465""","32.879212"",",colleyville,TX
Parkway,,(817) 461-9362,"801 E Lamar Arlington, TX 76011",https://www.wholefoodsmarket.com/stores/arlington-tx,"-97.098904""","32.766919"",",arlington-tx,TX
Las Colinas,,(469) 845-8001,"6741 N MacArthur Blvd Irving, TX 75039",https://www.wholefoodsmarket.com/stores/lascolinas,"-96.960361""","32.901281"",",lascolinas,TX
Plano,,(972) 612-6729,"2201 Preston Rd Plano, TX 75093",https://www.wholefoodsmarket.com/stores/plano,"-96.796754""","33.029281"",",plano,TX
Addison,,(214) 854-3334,"5100 Belt Line Rd Addison, TX 75254",https://www.wholefoodsmarket.com/stores/addison,"-96.821423""","32.953182"",",addison,TX
Forest,,(214) 361-8887,"11700 Preston Rd Dallas, TX 75230",https://www.wholefoodsmarket.com/stores/preston,"-96.803062""","32.907312"",",preston,TX
Highland Park,,(214) 520-7993,"4100 Lomo Alto Dr Highland Park, TX 75219",https://www.wholefoodsmarket.com/stores/highlandpark,"-96.81471""
","32.82044"",
",highlandpark,TX
Fairview,,(972) 549-4090,"105 Stacy Rd Fairview, TX 75069",https://www.wholefoodsmarket.com/stores/fairview,-96.6566026,33.13100341,fairview,TX
Park Lane,,(214) 342-4850,"8190 Park Ln Dallas, TX 75231",https://www.wholefoodsmarket.com/stores/parklane,-96.7679622,32.86799526,parklane,TX
Cityline,,(214) 273-0902,"1411 E Renner Rd Richardson, TX 75082",https://www.wholefoodsmarket.com/stores/cityline,-96.6987325,32.99879421,cityline,TX
Uptown Dallas,,(469) 518-5814,"2510 McKinney Ave Dallas, TX 75201",https://www.wholefoodsmarket.com/stores/uptowndallas,"-96.801691""","32.79542"",
",uptowndallas,TX
Lakewood,,(214) 824-1744,"2118 Abrams Rd Dallas, TX 75214",https://www.wholefoodsmarket.com/stores/lakewood,"-96.752321""","32.815669"",",lakewood,TX
Vineyard,,(210) 408-3110,"18403 Blanco Rd San Antonio, TX 78258",https://www.wholefoodsmarket.com/stores/vineyard,"-98.510941""","29.613119"",",vineyard,TX
Cedar Park,,(512) 690-2605,"5001 183 Toll Rd Cedar Park, TX 78613",https://www.wholefoodsmarket.com/stores/cedarpark,-97.8176783,30.53573895,cedarpark,TX
Bee Cave,,(512) 206-2730,"12601 Hill Country Blvd Bee Cave, TX 78738",https://www.wholefoodsmarket.com/stores/beecave,"-97.937572""","30.307525"",",beecave,TX
Alamo Quarry,,(210) 826-4676,"255 E Basse Rd San Antonio, TX 78209",https://www.wholefoodsmarket.com/stores/quarry,"-98.480574""","29.493296"",",quarry,TX
Gateway,,(512) 345-5003,"9607 Research Blvd Austin, TX 78759",https://www.wholefoodsmarket.com/stores/gateway,"-97.741483""","30.389293"",",gateway,TX
Domain,,(512) 831-3981,"11920 Domain Dr Austin, TX 78758",https://www.wholefoodsmarket.com/stores/domain,"-97.720025""","30.406373"",",domain,TX
Arbor Trails,,(512) 358-2460,"4301 W William Cannon Austin, TX 78749",https://www.wholefoodsmarket.com/stores/arbortrails,"-97.841947""","30.220346"",",arbortrails,TX
Lamar,,(512) 542-2200,"525 N Lamar Blvd Austin, TX 78703",https://www.wholefoodsmarket.com/stores/lamar,"-97.753388""","30.270598"",",lamar,TX
East Austin,,(512) 884-5910,"901 E 5th St Austin, TX 78702",https://www.wholefoodsmarket.com/stores/eastaustin,"-97.73363""
","30.26396"",
",eastaustin,TX
Katy,,(281) 769-5670,"6601 S Fry Rd Katy, TX 77494",https://www.wholefoodsmarket.com/stores/katy,"-95.771282""","29.712195"",",katy,TX
The Woodlands,,(832) 246-5600,"1925 Hughes Landing Blvd The Woodlands, TX 77380",https://www.wholefoodsmarket.com/stores/thewoodlands,"-95.470834""","30.169391"",",thewoodlands,TX
Champions,,(281) 803-6396,"10133 Louetta Rd Houston, TX 77070",https://www.wholefoodsmarket.com/stores/champions,"-95.562013""","29.998395"",",champions,TX
Westchase,,(713) 784-7776,"11041 Westheimer Rd Houston, TX 77042",https://www.wholefoodsmarket.com/stores/westchase,-95.5705205,29.73506756,westchase,TX
Sugar Land,,(281) 491-5577,"15900 Southwest Fwy Sugar Land, TX 77478",https://www.wholefoodsmarket.com/stores/sugarland,"-95.623382""","29.600051"",",sugarland,TX
Voss,,(713) 789-4477,"1407 S Voss Rd Houston, TX 77057",https://www.wholefoodsmarket.com/stores/voss,"-95.499911""","29.75252"",
",voss,TX
Post Oak,,(713) 346-0537,"1700 Post Oak Blvd Houston, TX 77056",https://www.wholefoodsmarket.com/stores/postoak,"-95.46192""
","29.749298"",",postoak,TX
Independence Heights,,(713) 369-0800,"101 N Loop W Houston, TX 77018",https://www.wholefoodsmarket.com/stores/independenceheights,"-95.3981""
 ","29.8139"",
 ",independenceheights,TX
Bellaire,,(713) 667-4090,"4004 Bellaire Blvd Houston, TX 77025",https://www.wholefoodsmarket.com/stores/bellaire,"-95.441443""","29.70693"",
",bellaire,TX
Kirby,,(713) 520-1937,"2955 Kirby Dr Houston, TX 77098",https://www.wholefoodsmarket.com/stores/kirby,"-95.418147""","29.739315"",",kirby,TX
Montrose,,(713) 284-1260,"701 Waugh Dr Houston, TX 77019",https://www.wholefoodsmarket.com/stores/montrose,"-95.397559""","29.758033"",",montrose,TX
Cottonwood Heights,,(801) 733-9455,"6930 S Highland Dr Cottonwood Heights, UT 84121",https://www.wholefoodsmarket.com/stores/highlanddrive,-111.835906,"40.625077"",",highlanddrive,UT
Trolley Square,,(801) 924-9060,"544 S 700 E Salt Lake City, UT 84102",https://www.wholefoodsmarket.com/stores/trolleysquare,-111.871839,"40.757926"",",trolleysquare,UT
Sugar House,,(801) 359-7913,"1131 E Wilmington Ave Salt Lake City, UT 84106",https://www.wholefoodsmarket.com/stores/sugarhouse,"-111.85894""","40.723719"",",sugarhouse,UT
Canyon Corners,,(435) 575-0200,"6598 N Landmark Dr Park City, UT 84098",https://www.wholefoodsmarket.com/stores/canyoncorners,-111.546933,"40.727189"",",canyoncorners,UT
Virginia Beach,,(757) 422-0444,"1800 Laskin Rd Virginia Beach, VA 23454",https://www.wholefoodsmarket.com/stores/virginiabeach,"-76.027984""","36.85069"",
",virginiabeach,VA
Charlottesville,,(434) 973-4900,"1797 Hydraulic Rd Charlottesville, VA 22901",https://www.wholefoodsmarket.com/stores/charlottesville,-78.4892592,38.05968725,charlottesville,VA
Ashburn,,(571) 223-4440,"19800 Belmont Chase Dr Ashburn, VA 20147",https://www.wholefoodsmarket.com/stores/ashburn,"-77.484275""","39.068415"",",ashburn,VA
Reston,,(703) 736-0600,"11660 Plaza America Dr Reston, VA 20190",https://www.wholefoodsmarket.com/stores/reston,-77.3491852,38.95171143,reston,VA
Fair Lakes,,(703) 222-2058,"4501 Market Commons Dr Fairfax, VA 22033",https://www.wholefoodsmarket.com/stores/fairlakes,-77.3775028,38.85774522,fairlakes,VA
Vienna,,(703) 319-2000,"143 Maple Ave E Vienna, VA 22180",https://www.wholefoodsmarket.com/stores/vienna,"-77.262963""","38.902421"",",vienna,VA
Tysons Corner,,(571) 634-3610,"1635 Boro Place McLean, VA 22102",https://www.wholefoodsmarket.com/stores/tysonscorner,"-77.2331""
 ","38.9251"",
 ",tysonscorner,VA
Tysons,,(703) 448-1600,"7511 Leesburg Pike Falls Church, VA 22043",https://www.wholefoodsmarket.com/stores/tysons,"-77.205047""","38.902898"",",tysons,VA
Short Pump,,(804) 364-4050,"11173 W Broad St Glen Allen, VA 23060",https://www.wholefoodsmarket.com/stores/shortpump,-77.5995834,37.64789453,shortpump,VA
Springfield Plaza,,(703) 644-2500,"6426 Springfield Plaza Springfield, VA 22150",https://www.wholefoodsmarket.com/stores/springfieldplaza,-77.1900823,38.77998354,springfieldplaza,VA
Arlington VA,,(703) 527-6596,"2700 Wilson Blvd Arlington, VA 22201",https://www.wholefoodsmarket.com/stores/arlington-va,"-77.091065""","38.889049"",",arlington-va,VA
Pentagon City,,(571) 777-3948,"520 12th St South Arlington, VA 22202",https://www.wholefoodsmarket.com/stores/pentagoncity,"-77.054583""","38.862695"",",pentagoncity,VA
Old Town,,(703) 706-0891,"1700 Duke St Alexandria, VA 22314",https://www.wholefoodsmarket.com/stores/alexandria,"-77.059969""","38.804089"",",alexandria,VA
Richmond VA,,(804) 956-3750,"2024 W Broad St Richmond, VA 23220",https://www.wholefoodsmarket.com/stores/richmond-va,"-77.461533""","37.557842"",",richmond-va,VA
Newport News,,(757) 947-2460,"12090 Jefferson Ave Newport News, VA 23606",https://www.wholefoodsmarket.com/stores/newportnews,-76.4895640,37.10389695,newportnews,VA
Tenleytown,,(202) 237-5800,"4530 40th St NW Washington, DC 20016",https://www.wholefoodsmarket.com/stores/tenley,"-77.079298""","38.949055"",",tenley,DC
Glover Park,,(202) 747-5570,"2323 Wisconsin Ave, NW Washington, DC 20007",https://www.wholefoodsmarket.com/stores/gloverpark,"-77.071286""","38.920936"",",gloverpark,DC
Historic Walter Reed,,(202) 846-6680,"7130 12th Street NW Washington, DC 20012",https://www.wholefoodsmarket.com/stores/historicwalterreed,-77.0281346,"38.9765737""",historicwalterreed,DC
Foggy Bottom,,(202) 296-1660,"2201 I Street NW Washington, DC 20037",https://www.wholefoodsmarket.com/stores/foggybottom,"-77.049016""","38.900843"",",foggybottom,DC
P Street,,(202) 332-4300,"1440 P Street NW Washington, DC 20005",https://www.wholefoodsmarket.com/stores/pstreet,"-77.033419""","38.909371"",",pstreet,DC
Florida Avenue,,(202) 519-3400,"967 Florida Avenue NW Washington, DC 20001",https://www.wholefoodsmarket.com/stores/floridaavenue,"-77.0247""
 ","38.9196"",
 ",floridaavenue,DC
South Capitol Hill,,(202) 469-7280,"101 H St SE Washington, DC 20003",https://www.wholefoodsmarket.com/stores/southcapitolhill,"-77.005132""","38.88026"",
",southcapitolhill,DC
H Street,,(202) 469-7410,"600 H St NE Washington, DC 20002",https://www.wholefoodsmarket.com/stores/hstreet,"-76.998054""","38.900447"",",hstreet,DC
Chambers Bay,,(253) 534-4500,"3515 Bridgeport Way W University Place, WA 98466",https://www.wholefoodsmarket.com/stores/chambersbay,-122.536071,"47.227235"",",chambersbay,WA
West Seattle,,(206) 338-5060,"4755 Fauntleroy Way SW Seattle, WA 98116",https://www.wholefoodsmarket.com/stores/westseattle,-122.381926,"47.560745"",",westseattle,WA
Bellevue,,(425) 462-1400,"888 116th Ave NE Bellevue, WA 98004",https://www.wholefoodsmarket.com/stores/bellevue,-122.184588,"47.618361"",",bellevue,WA
Madison Broadway,,(206) 802-3720,"1001 Broadway Seattle, WA 98122",https://www.wholefoodsmarket.com/stores/madisonbroadway,"-122.321""
 ","47.6113"",
 ",madisonbroadway,WA
Westlake,,(206) 621-9700,"2210 Westlake Ave Seattle, WA 98121",https://www.wholefoodsmarket.com/stores/westlake,-122.337898,"47.618249"",",westlake,WA
Interbay,,(206) 352-5440,"2001 15th Ave W Seattle, WA 98119",https://www.wholefoodsmarket.com/stores/interbay,-122.376822,47.63696928,interbay,WA
Redmond,,(425) 881-2600,"17991 NE Redmond Way Redmond, WA 98052",https://www.wholefoodsmarket.com/stores/redmond,-122.101703,"47.666262"",",redmond,WA
Roosevelt Square,,(206) 985-1500,"1026 NE 64th St Seattle, WA 98115",https://www.wholefoodsmarket.com/stores/rooseveltsquare,-122.316555,"47.675254"",",rooseveltsquare,WA
Kirkland,,(425) 979-3301,"12501 120th Ave NE Kirkland, WA 98034",https://www.wholefoodsmarket.com/stores/kirkland,-122.179711,"47.711523"",",kirkland,WA
Lynnwood,,(425) 775-1320,"2800 SW 196th St Lynnwood, WA 98036",https://www.wholefoodsmarket.com/stores/lynnwood,-122.272471,"47.819814"",",lynnwood,WA
Bellingham Lakeway,,(360) 714-6820,"1030 Lakeway Dr Bellingham, WA 98229",https://www.wholefoodsmarket.com/stores/bellinghamlakeway,-122.461261,48.74363266,bellinghamlakeway,WA
Washington Park,,(303) 733-6201,"1111 S Washington St Denver, CO 80210",https://www.wholefoodsmarket.com/stores/washingtonpark,-104.979965,"39.695988"",",washingtonpark,CO
Mt. Washington,,(410) 532-6700,"1330 Smith Ave Baltimore, MD 21209",https://www.wholefoodsmarket.com/stores/mountwashington,"-76.649505""","39.368299"",",mountwashington,MD
Madison,,(608) 233-9566,"4710 Madison Yards Way Madison, WI 53705",https://www.wholefoodsmarket.com/stores/madisonsegoe,"-89.45844""
","43.07461"",
",madisonsegoe,WI
Wauwatosa,,(414) 808-3600,"11100 W Burleigh St Wauwatosa, WI 53222",https://www.wholefoodsmarket.com/stores/wauwatosa,-88.0515101,43.07544237,wauwatosa,WI
Milwaukee,,(414) 223-1500,"2305 N Prospect Ave Milwaukee, WI 53211",https://www.wholefoodsmarket.com/stores/mlw,-87.8837622,43.06032381,mlw,WI
Jackson Wyoming,,(307) 733-0450,"1155 S Highway 89 Jackson, WY 83001",https://www.wholefoodsmarket.com/stores/jacksonwyoming,-110.794090,"43.4636658""",jacksonwyoming,WY
